<?xml version="1.0" encoding="UTF-8"?>
<gpx creator="StravaGPX" version="1.1" xmlns="http://www.topografix.com/GPX/1/1" xmlns:xsi="http://www.w3.org/2001/XMLSchema-instance" xsi:schemaLocation="http://www.topografix.com/GPX/1/1 http://www.topografix.com/GPX/1/1/gpx.xsd">
 <metadata>
  <name>toyo</name>
  <author>
   <name>Edison Manriquez Alegria</name>
   <link href="https://www.strava.com/athletes/1878469"/>
  </author>
  <copyright author="OpenStreetMap contributors">
   <year>2020</year>
   <license>https://www.openstreetmap.org/copyright</license>
  </copyright>
  <link href="https://www.strava.com/routes/3493053456113975476"/>
 </metadata>
 <trk>
  <name>toyo</name>
  <link href="https://www.strava.com/routes/3493053456113975476"/>
  <type>cycling</type>
  <trkseg>
   <trkpt lat="-33.5983" lon="-70.52523000000001">
    <ele>773.6200000000001</ele>
   </trkpt>
   <trkpt lat="-33.59825" lon="-70.52457000000001">
    <ele>774.1800000000001</ele>
   </trkpt>
   <trkpt lat="-33.598226673977585" lon="-70.52361666613716">
    <ele>774.9</ele>
   </trkpt>
   <trkpt lat="-33.59820334064391" lon="-70.52266333279009">
    <ele>776.14</ele>
   </trkpt>
   <trkpt lat="-33.59818" lon="-70.52171">
    <ele>777.6700000000001</ele>
   </trkpt>
   <trkpt lat="-33.59818" lon="-70.5215">
    <ele>777.88</ele>
   </trkpt>
   <trkpt lat="-33.59821" lon="-70.52113">
    <ele>778.1800000000001</ele>
   </trkpt>
   <trkpt lat="-33.59819334090226" lon="-70.52015999961363">
    <ele>779.54</ele>
   </trkpt>
   <trkpt lat="-33.59817667423541" lon="-70.51918999960205">
    <ele>780.4300000000001</ele>
   </trkpt>
   <trkpt lat="-33.59816" lon="-70.51822">
    <ele>781.09</ele>
   </trkpt>
   <trkpt lat="-33.59812" lon="-70.51726000000001">
    <ele>782.3800000000001</ele>
   </trkpt>
   <trkpt lat="-33.59805" lon="-70.51674000000001">
    <ele>782.8900000000001</ele>
   </trkpt>
   <trkpt lat="-33.598020004266665" lon="-70.51570999962266">
    <ele>783.7</ele>
   </trkpt>
   <trkpt lat="-33.59799" lon="-70.51468000000001">
    <ele>784.6500000000001</ele>
   </trkpt>
   <trkpt lat="-33.59796500410693" lon="-70.51366999986159">
    <ele>785.95</ele>
   </trkpt>
   <trkpt lat="-33.59794" lon="-70.51266000000001">
    <ele>786.7</ele>
   </trkpt>
   <trkpt lat="-33.59796" lon="-70.51245">
    <ele>787.02</ele>
   </trkpt>
   <trkpt lat="-33.597970000000004" lon="-70.51183">
    <ele>787.45</ele>
   </trkpt>
   <trkpt lat="-33.597945004479584" lon="-70.51077499980813">
    <ele>788.8000000000001</ele>
   </trkpt>
   <trkpt lat="-33.59792" lon="-70.50972">
    <ele>790.07</ele>
   </trkpt>
   <trkpt lat="-33.59789" lon="-70.50918">
    <ele>790.9100000000001</ele>
   </trkpt>
   <trkpt lat="-33.59785" lon="-70.50898000000001">
    <ele>790.9100000000001</ele>
   </trkpt>
   <trkpt lat="-33.59782878038036" lon="-70.5079412482178">
    <ele>792.1400000000001</ele>
   </trkpt>
   <trkpt lat="-33.59780755208063" lon="-70.50690249694686">
    <ele>792.61</ele>
   </trkpt>
   <trkpt lat="-33.59778631510085" lon="-70.50586374618737">
    <ele>793.0400000000001</ele>
   </trkpt>
   <trkpt lat="-33.59776506944102" lon="-70.50482499593956">
    <ele>793.37</ele>
   </trkpt>
   <trkpt lat="-33.59774381510116" lon="-70.50378624620363">
    <ele>794.0800000000002</ele>
   </trkpt>
   <trkpt lat="-33.59772255208126" lon="-70.5027474969798">
    <ele>794.6200000000001</ele>
   </trkpt>
   <trkpt lat="-33.59770128038134" lon="-70.50170874826824">
    <ele>795.72</ele>
   </trkpt>
   <trkpt lat="-33.597680000000004" lon="-70.50067">
    <ele>796.57</ele>
   </trkpt>
   <trkpt lat="-33.59776" lon="-70.49986000000001">
    <ele>796.7900000000001</ele>
   </trkpt>
   <trkpt lat="-33.59783" lon="-70.49957">
    <ele>797.09</ele>
   </trkpt>
   <trkpt lat="-33.59803" lon="-70.49914000000001">
    <ele>797.25</ele>
   </trkpt>
   <trkpt lat="-33.59839" lon="-70.4983">
    <ele>796.85</ele>
   </trkpt>
   <trkpt lat="-33.59843" lon="-70.49807000000001">
    <ele>796.54</ele>
   </trkpt>
   <trkpt lat="-33.59841" lon="-70.49763">
    <ele>794.6200000000001</ele>
   </trkpt>
   <trkpt lat="-33.59816500412206" lon="-70.49661999720884">
    <ele>791.1300000000001</ele>
   </trkpt>
   <trkpt lat="-33.59792" lon="-70.49561">
    <ele>790.5300000000001</ele>
   </trkpt>
   <trkpt lat="-33.59776" lon="-70.49511000000001">
    <ele>791.4300000000001</ele>
   </trkpt>
   <trkpt lat="-33.597370003118776" lon="-70.49423999623176">
    <ele>793.15</ele>
   </trkpt>
   <trkpt lat="-33.59698" lon="-70.49337">
    <ele>792.81</ele>
   </trkpt>
   <trkpt lat="-33.59651000323875" lon="-70.49247999525001">
    <ele>789.7700000000001</ele>
   </trkpt>
   <trkpt lat="-33.59604" lon="-70.49159">
    <ele>787.7400000000001</ele>
   </trkpt>
   <trkpt lat="-33.59577" lon="-70.49123">
    <ele>786.9200000000001</ele>
   </trkpt>
   <trkpt lat="-33.59552" lon="-70.49096">
    <ele>786.48</ele>
   </trkpt>
   <trkpt lat="-33.5950500007376" lon="-70.49051499751941">
    <ele>786.34</ele>
   </trkpt>
   <trkpt lat="-33.59458" lon="-70.49007">
    <ele>786.36</ele>
   </trkpt>
   <trkpt lat="-33.59422000163679" lon="-70.48941999717427">
    <ele>788.39</ele>
   </trkpt>
   <trkpt lat="-33.59386" lon="-70.48877">
    <ele>791.2800000000001</ele>
   </trkpt>
   <trkpt lat="-33.59334500277813" lon="-70.48793999505645">
    <ele>794.19</ele>
   </trkpt>
   <trkpt lat="-33.59283" lon="-70.48711">
    <ele>794.0400000000001</ele>
   </trkpt>
   <trkpt lat="-33.5924600025889" lon="-70.48654332848125">
    <ele>795.0400000000001</ele>
   </trkpt>
   <trkpt lat="-33.5920900025948" lon="-70.48597666182367">
    <ele>795.4100000000001</ele>
   </trkpt>
   <trkpt lat="-33.59172" lon="-70.48541">
    <ele>796.54</ele>
   </trkpt>
   <trkpt lat="-33.59151" lon="-70.48518">
    <ele>796.73</ele>
   </trkpt>
   <trkpt lat="-33.59114" lon="-70.48483">
    <ele>796.58</ele>
   </trkpt>
   <trkpt lat="-33.590920000000004" lon="-70.48465">
    <ele>796.76</ele>
   </trkpt>
   <trkpt lat="-33.59069" lon="-70.48442">
    <ele>797.25</ele>
   </trkpt>
   <trkpt lat="-33.59055" lon="-70.4842">
    <ele>797.6200000000001</ele>
   </trkpt>
   <trkpt lat="-33.59042" lon="-70.48385">
    <ele>799.3</ele>
   </trkpt>
   <trkpt lat="-33.59028" lon="-70.48339">
    <ele>801.6800000000001</ele>
   </trkpt>
   <trkpt lat="-33.59004" lon="-70.48271000000001">
    <ele>803.51</ele>
   </trkpt>
   <trkpt lat="-33.58981" lon="-70.48214">
    <ele>804.7700000000001</ele>
   </trkpt>
   <trkpt lat="-33.5897" lon="-70.48195000000001">
    <ele>805.4000000000001</ele>
   </trkpt>
   <trkpt lat="-33.5895" lon="-70.48173">
    <ele>806.2300000000001</ele>
   </trkpt>
   <trkpt lat="-33.58934" lon="-70.48164">
    <ele>806.8900000000001</ele>
   </trkpt>
   <trkpt lat="-33.5891" lon="-70.48156">
    <ele>807.2</ele>
   </trkpt>
   <trkpt lat="-33.58874" lon="-70.48138">
    <ele>807.9300000000001</ele>
   </trkpt>
   <trkpt lat="-33.5884" lon="-70.48102">
    <ele>808.44</ele>
   </trkpt>
   <trkpt lat="-33.58834" lon="-70.48092000000001">
    <ele>808.5500000000001</ele>
   </trkpt>
   <trkpt lat="-33.58814" lon="-70.48053">
    <ele>808.74</ele>
   </trkpt>
   <trkpt lat="-33.588015001289556" lon="-70.47996499920733">
    <ele>807.4000000000001</ele>
   </trkpt>
   <trkpt lat="-33.58789" lon="-70.47940000000001">
    <ele>805.94</ele>
   </trkpt>
   <trkpt lat="-33.58778" lon="-70.47914">
    <ele>802.54</ele>
   </trkpt>
   <trkpt lat="-33.58748500144558" lon="-70.47855499813717">
    <ele>799.0400000000001</ele>
   </trkpt>
   <trkpt lat="-33.58719" lon="-70.47797">
    <ele>795.4100000000001</ele>
   </trkpt>
   <trkpt lat="-33.5871" lon="-70.47762">
    <ele>793.9300000000001</ele>
   </trkpt>
   <trkpt lat="-33.58708" lon="-70.47676">
    <ele>788.7700000000001</ele>
   </trkpt>
   <trkpt lat="-33.58713" lon="-70.47586000000001">
    <ele>785.5500000000001</ele>
   </trkpt>
   <trkpt lat="-33.58719" lon="-70.4752">
    <ele>785.6700000000001</ele>
   </trkpt>
   <trkpt lat="-33.587320000000005" lon="-70.47432">
    <ele>789.63</ele>
   </trkpt>
   <trkpt lat="-33.58748" lon="-70.47434000000001">
    <ele>788.99</ele>
   </trkpt>
   <trkpt lat="-33.58762" lon="-70.47427">
    <ele>788.34</ele>
   </trkpt>
   <trkpt lat="-33.58782" lon="-70.47413">
    <ele>786.0400000000001</ele>
   </trkpt>
   <trkpt lat="-33.5882" lon="-70.47371000000001">
    <ele>784.7400000000001</ele>
   </trkpt>
   <trkpt lat="-33.58829" lon="-70.47363">
    <ele>784.5600000000001</ele>
   </trkpt>
   <trkpt lat="-33.58842" lon="-70.47359">
    <ele>783.7400000000001</ele>
   </trkpt>
   <trkpt lat="-33.58899500021005" lon="-70.47348000070227">
    <ele>782.96</ele>
   </trkpt>
   <trkpt lat="-33.58957" lon="-70.47337">
    <ele>782.0600000000001</ele>
   </trkpt>
   <trkpt lat="-33.59004" lon="-70.47318">
    <ele>781.1600000000001</ele>
   </trkpt>
   <trkpt lat="-33.59039" lon="-70.47314">
    <ele>780.1300000000001</ele>
   </trkpt>
   <trkpt lat="-33.59116666676193" lon="-70.4731100005368">
    <ele>777.57</ele>
   </trkpt>
   <trkpt lat="-33.59194333351663" lon="-70.4730800005334">
    <ele>777.2800000000001</ele>
   </trkpt>
   <trkpt lat="-33.59272" lon="-70.47305">
    <ele>777.5300000000001</ele>
   </trkpt>
   <trkpt lat="-33.592870000000005" lon="-70.47297">
    <ele>777.58</ele>
   </trkpt>
   <trkpt lat="-33.59308" lon="-70.47273000000001">
    <ele>778.19</ele>
   </trkpt>
   <trkpt lat="-33.59313" lon="-70.47246000000001">
    <ele>779.27</ele>
   </trkpt>
   <trkpt lat="-33.59306" lon="-70.47184">
    <ele>780.82</ele>
   </trkpt>
   <trkpt lat="-33.5931" lon="-70.47166">
    <ele>781.6800000000001</ele>
   </trkpt>
   <trkpt lat="-33.59317" lon="-70.47148">
    <ele>782.87</ele>
   </trkpt>
   <trkpt lat="-33.59326" lon="-70.47135">
    <ele>783.57</ele>
   </trkpt>
   <trkpt lat="-33.59379000132972" lon="-70.47094667160711">
    <ele>787.98</ele>
   </trkpt>
   <trkpt lat="-33.594320001350866" lon="-70.47054333825773">
    <ele>794.2</ele>
   </trkpt>
   <trkpt lat="-33.59485" lon="-70.47014">
    <ele>801.7</ele>
   </trkpt>
   <trkpt lat="-33.59501" lon="-70.46997">
    <ele>804.12</ele>
   </trkpt>
   <trkpt lat="-33.59548" lon="-70.46933">
    <ele>807.9000000000001</ele>
   </trkpt>
   <trkpt lat="-33.59597" lon="-70.46852000000001">
    <ele>816.46</ele>
   </trkpt>
   <trkpt lat="-33.59649500232197" lon="-70.46777000448031">
    <ele>825.32</ele>
   </trkpt>
   <trkpt lat="-33.59702" lon="-70.46702">
    <ele>832.0300000000001</ele>
   </trkpt>
   <trkpt lat="-33.597030000000004" lon="-70.46702">
    <ele>832.11</ele>
   </trkpt>
   <trkpt lat="-33.5966" lon="-70.46673000000001">
    <ele>830.52</ele>
   </trkpt>
   <trkpt lat="-33.59606" lon="-70.46627000000001">
    <ele>829.47</ele>
   </trkpt>
   <trkpt lat="-33.595365001598005" lon="-70.46562499473286">
    <ele>826.3100000000001</ele>
   </trkpt>
   <trkpt lat="-33.59467" lon="-70.46498000000001">
    <ele>827.49</ele>
   </trkpt>
   <trkpt lat="-33.59416" lon="-70.46454">
    <ele>827.3100000000001</ele>
   </trkpt>
   <trkpt lat="-33.59373" lon="-70.46424">
    <ele>825.1800000000001</ele>
   </trkpt>
   <trkpt lat="-33.593340000000005" lon="-70.46390000000001">
    <ele>824.07</ele>
   </trkpt>
   <trkpt lat="-33.59313" lon="-70.46361">
    <ele>823.5000000000001</ele>
   </trkpt>
   <trkpt lat="-33.59292" lon="-70.46329">
    <ele>823.21</ele>
   </trkpt>
   <trkpt lat="-33.59288" lon="-70.46298">
    <ele>824.01</ele>
   </trkpt>
   <trkpt lat="-33.592915001463304" lon="-70.46237500039827">
    <ele>827.59</ele>
   </trkpt>
   <trkpt lat="-33.59295" lon="-70.46177">
    <ele>830.91</ele>
   </trkpt>
   <trkpt lat="-33.59288" lon="-70.46146">
    <ele>831.2400000000001</ele>
   </trkpt>
   <trkpt lat="-33.592400002902835" lon="-70.46060499517597">
    <ele>830.28</ele>
   </trkpt>
   <trkpt lat="-33.59192" lon="-70.45975">
    <ele>830.73</ele>
   </trkpt>
   <trkpt lat="-33.5918" lon="-70.45945">
    <ele>831.5400000000001</ele>
   </trkpt>
   <trkpt lat="-33.59167" lon="-70.45899">
    <ele>832.9399999999999</ele>
   </trkpt>
   <trkpt lat="-33.5916" lon="-70.45882">
    <ele>832.9399999999999</ele>
   </trkpt>
   <trkpt lat="-33.59145" lon="-70.45868">
    <ele>834.5300000000001</ele>
   </trkpt>
   <trkpt lat="-33.59122" lon="-70.45854">
    <ele>835.3600000000001</ele>
   </trkpt>
   <trkpt lat="-33.59111" lon="-70.45837">
    <ele>836.74</ele>
   </trkpt>
   <trkpt lat="-33.59089" lon="-70.45761">
    <ele>842.0200000000001</ele>
   </trkpt>
   <trkpt lat="-33.59071" lon="-70.45721">
    <ele>843.25</ele>
   </trkpt>
   <trkpt lat="-33.59053" lon="-70.45697000000001">
    <ele>843.37</ele>
   </trkpt>
   <trkpt lat="-33.59015" lon="-70.45652000000001">
    <ele>843.35</ele>
   </trkpt>
   <trkpt lat="-33.589870000000005" lon="-70.45623">
    <ele>843.0200000000001</ele>
   </trkpt>
   <trkpt lat="-33.58925333490331" lon="-70.45578999371898">
    <ele>840.82</ele>
   </trkpt>
   <trkpt lat="-33.58863666824937" lon="-70.45534999372816">
    <ele>841.1200000000001</ele>
   </trkpt>
   <trkpt lat="-33.58802" lon="-70.45491000000001">
    <ele>844.46</ele>
   </trkpt>
   <trkpt lat="-33.587363335499084" lon="-70.45438999207732">
    <ele>845.84</ele>
   </trkpt>
   <trkpt lat="-33.58670666882322" lon="-70.45386999207017">
    <ele>844.94</ele>
   </trkpt>
   <trkpt lat="-33.58605" lon="-70.45335">
    <ele>848.21</ele>
   </trkpt>
   <trkpt lat="-33.58574" lon="-70.45304">
    <ele>851.49</ele>
   </trkpt>
   <trkpt lat="-33.58549" lon="-70.45272">
    <ele>853.0200000000001</ele>
   </trkpt>
   <trkpt lat="-33.58512000152886" lon="-70.45209499724892">
    <ele>851.77</ele>
   </trkpt>
   <trkpt lat="-33.58475" lon="-70.45147">
    <ele>847.8700000000001</ele>
   </trkpt>
   <trkpt lat="-33.58462" lon="-70.4512">
    <ele>847.6700000000001</ele>
   </trkpt>
   <trkpt lat="-33.58431" lon="-70.45039">
    <ele>849.7600000000001</ele>
   </trkpt>
   <trkpt lat="-33.58395667107624" lon="-70.44964999395087">
    <ele>850.3000000000001</ele>
   </trkpt>
   <trkpt lat="-33.58360333774815" lon="-70.44890999396196">
    <ele>850.52</ele>
   </trkpt>
   <trkpt lat="-33.58325" lon="-70.44817">
    <ele>849.9100000000001</ele>
   </trkpt>
   <trkpt lat="-33.58314" lon="-70.44802">
    <ele>849.46</ele>
   </trkpt>
   <trkpt lat="-33.58299" lon="-70.44785">
    <ele>848.84</ele>
   </trkpt>
   <trkpt lat="-33.5826" lon="-70.44771">
    <ele>847.2600000000001</ele>
   </trkpt>
   <trkpt lat="-33.58249" lon="-70.44762">
    <ele>847.2600000000001</ele>
   </trkpt>
   <trkpt lat="-33.5824" lon="-70.44753">
    <ele>846.5100000000001</ele>
   </trkpt>
   <trkpt lat="-33.58231" lon="-70.4474">
    <ele>846.0600000000001</ele>
   </trkpt>
   <trkpt lat="-33.58190500925113" lon="-70.44652498771234">
    <ele>842.34</ele>
   </trkpt>
   <trkpt lat="-33.58150001234452" lon="-70.44564998363758">
    <ele>841.99</ele>
   </trkpt>
   <trkpt lat="-33.58109500928029" lon="-70.44477498777572">
    <ele>842.73</ele>
   </trkpt>
   <trkpt lat="-33.580690000000004" lon="-70.4439">
    <ele>843.5100000000001</ele>
   </trkpt>
   <trkpt lat="-33.5805" lon="-70.44336000000001">
    <ele>843.8700000000001</ele>
   </trkpt>
   <trkpt lat="-33.58041" lon="-70.44283">
    <ele>844.2400000000001</ele>
   </trkpt>
   <trkpt lat="-33.58043" lon="-70.44237000000001">
    <ele>844.33</ele>
   </trkpt>
   <trkpt lat="-33.58055" lon="-70.4418">
    <ele>844.38</ele>
   </trkpt>
   <trkpt lat="-33.58059334111358" lon="-70.4408166675724">
    <ele>839.84</ele>
   </trkpt>
   <trkpt lat="-33.58063667445051" lon="-70.43983333415724">
    <ele>834.9900000000001</ele>
   </trkpt>
   <trkpt lat="-33.58068" lon="-70.43885">
    <ele>833.19</ele>
   </trkpt>
   <trkpt lat="-33.58068" lon="-70.43839000000001">
    <ele>832.37</ele>
   </trkpt>
   <trkpt lat="-33.58057" lon="-70.43794000000001">
    <ele>831.96</ele>
   </trkpt>
   <trkpt lat="-33.58041" lon="-70.4372">
    <ele>830.6800000000001</ele>
   </trkpt>
   <trkpt lat="-33.58034" lon="-70.43674">
    <ele>830.89</ele>
   </trkpt>
   <trkpt lat="-33.58034000117259" lon="-70.43620000000193">
    <ele>832.0600000000001</ele>
   </trkpt>
   <trkpt lat="-33.58034" lon="-70.43566000000001">
    <ele>833.83</ele>
   </trkpt>
   <trkpt lat="-33.58037" lon="-70.43486">
    <ele>837.2900000000001</ele>
   </trkpt>
   <trkpt lat="-33.58046" lon="-70.43432">
    <ele>839.5600000000001</ele>
   </trkpt>
   <trkpt lat="-33.58071333726415" lon="-70.43362000413735">
    <ele>844.74</ele>
   </trkpt>
   <trkpt lat="-33.58096667058749" lon="-70.432920004165">
    <ele>849.0500000000001</ele>
   </trkpt>
   <trkpt lat="-33.58122" lon="-70.43222">
    <ele>852.22</ele>
   </trkpt>
   <trkpt lat="-33.58128" lon="-70.432">
    <ele>852.6700000000001</ele>
   </trkpt>
   <trkpt lat="-33.58131" lon="-70.43177">
    <ele>853.37</ele>
   </trkpt>
   <trkpt lat="-33.58135203662721" lon="-70.4307640044057">
    <ele>857.13</ele>
   </trkpt>
   <trkpt lat="-33.58139406511511" lon="-70.42975800783144">
    <ele>860.04</ele>
   </trkpt>
   <trkpt lat="-33.5814360854637" lon="-70.4287520102774">
    <ele>861.95</ele>
   </trkpt>
   <trkpt lat="-33.581478097672935" lon="-70.42774601174376">
    <ele>863.07</ele>
   </trkpt>
   <trkpt lat="-33.58152010174278" lon="-70.42674001223071">
    <ele>864.0500000000001</ele>
   </trkpt>
   <trkpt lat="-33.58156209767326" lon="-70.42573401173846">
    <ele>865.89</ele>
   </trkpt>
   <trkpt lat="-33.581604085464306" lon="-70.42472801026717">
    <ele>871.32</ele>
   </trkpt>
   <trkpt lat="-33.58164606511594" lon="-70.42372200781705">
    <ele>874.6400000000001</ele>
   </trkpt>
   <trkpt lat="-33.5816880366281" lon="-70.42271600438826">
    <ele>870.9000000000001</ele>
   </trkpt>
   <trkpt lat="-33.58173" lon="-70.42171">
    <ele>868.48</ele>
   </trkpt>
   <trkpt lat="-33.58175" lon="-70.42156">
    <ele>868.48</ele>
   </trkpt>
   <trkpt lat="-33.58184" lon="-70.42129">
    <ele>867.99</ele>
   </trkpt>
   <trkpt lat="-33.58216" lon="-70.42085">
    <ele>867.94</ele>
   </trkpt>
   <trkpt lat="-33.58227" lon="-70.42058">
    <ele>868.08</ele>
   </trkpt>
   <trkpt lat="-33.58240500156694" lon="-70.41995500099583">
    <ele>867.77</ele>
   </trkpt>
   <trkpt lat="-33.58254" lon="-70.41933">
    <ele>866.0500000000001</ele>
   </trkpt>
   <trkpt lat="-33.58267" lon="-70.41901">
    <ele>864.5500000000001</ele>
   </trkpt>
   <trkpt lat="-33.58283" lon="-70.41874">
    <ele>863.3000000000001</ele>
   </trkpt>
   <trkpt lat="-33.58303" lon="-70.41851000000001">
    <ele>859.19</ele>
   </trkpt>
   <trkpt lat="-33.58349333836891" lon="-70.41772000845639">
    <ele>855.95</ele>
   </trkpt>
   <trkpt lat="-33.58395667171836" lon="-70.41693000842905">
    <ele>854.3000000000001</ele>
   </trkpt>
   <trkpt lat="-33.58442" lon="-70.41614000000001">
    <ele>855.8800000000001</ele>
   </trkpt>
   <trkpt lat="-33.58482" lon="-70.41561">
    <ele>858.57</ele>
   </trkpt>
   <trkpt lat="-33.58498" lon="-70.41534">
    <ele>859.5200000000001</ele>
   </trkpt>
   <trkpt lat="-33.58528000176162" lon="-70.41467000242694">
    <ele>861.0200000000001</ele>
   </trkpt>
   <trkpt lat="-33.58558" lon="-70.414">
    <ele>862.25</ele>
   </trkpt>
   <trkpt lat="-33.58581" lon="-70.41315">
    <ele>861.94</ele>
   </trkpt>
   <trkpt lat="-33.58598" lon="-70.41279">
    <ele>860.74</ele>
   </trkpt>
   <trkpt lat="-33.58641" lon="-70.41203">
    <ele>857.37</ele>
   </trkpt>
   <trkpt lat="-33.58672" lon="-70.41154">
    <ele>855.2900000000001</ele>
   </trkpt>
   <trkpt lat="-33.58708" lon="-70.41113">
    <ele>852.01</ele>
   </trkpt>
   <trkpt lat="-33.587410000000006" lon="-70.41068">
    <ele>846.84</ele>
   </trkpt>
   <trkpt lat="-33.58811" lon="-70.41015">
    <ele>844.22</ele>
   </trkpt>
   <trkpt lat="-33.58845" lon="-70.40979">
    <ele>844.89</ele>
   </trkpt>
   <trkpt lat="-33.58865" lon="-70.4093">
    <ele>846.7800000000001</ele>
   </trkpt>
   <trkpt lat="-33.58876" lon="-70.40895">
    <ele>848.9000000000001</ele>
   </trkpt>
   <trkpt lat="-33.588885001744885" lon="-70.40829500084709">
    <ele>854.3100000000001</ele>
   </trkpt>
   <trkpt lat="-33.58901" lon="-70.40764">
    <ele>860.1200000000001</ele>
   </trkpt>
   <trkpt lat="-33.5891" lon="-70.40719">
    <ele>863.3000000000001</ele>
   </trkpt>
   <trkpt lat="-33.58934" lon="-70.4067">
    <ele>866.44</ele>
   </trkpt>
   <trkpt lat="-33.58973500172678" lon="-70.40605000293071">
    <ele>871.2500000000001</ele>
   </trkpt>
   <trkpt lat="-33.59013" lon="-70.4054">
    <ele>873.19</ele>
   </trkpt>
   <trkpt lat="-33.59038333760975" lon="-70.40467000431633">
    <ele>872.35</ele>
   </trkpt>
   <trkpt lat="-33.590636670933065" lon="-70.40394000434526">
    <ele>873.1700000000001</ele>
   </trkpt>
   <trkpt lat="-33.59089" lon="-70.40321">
    <ele>876.0000000000001</ele>
   </trkpt>
   <trkpt lat="-33.591135002344345" lon="-70.40244500220183">
    <ele>881.3700000000001</ele>
   </trkpt>
   <trkpt lat="-33.59138" lon="-70.40168">
    <ele>888.9100000000001</ele>
   </trkpt>
   <trkpt lat="-33.59168667222679" lon="-70.40084667266181">
    <ele>893.0000000000001</ele>
   </trkpt>
   <trkpt lat="-33.591993338867674" lon="-70.40001333939865">
    <ele>890.09</ele>
   </trkpt>
   <trkpt lat="-33.5923" lon="-70.39918">
    <ele>889.24</ele>
   </trkpt>
   <trkpt lat="-33.59248" lon="-70.39864">
    <ele>890.84</ele>
   </trkpt>
   <trkpt lat="-33.5926700027517" lon="-70.39781500175522">
    <ele>891.6800000000001</ele>
   </trkpt>
   <trkpt lat="-33.59286" lon="-70.39699">
    <ele>889.1700000000001</ele>
   </trkpt>
   <trkpt lat="-33.59295" lon="-70.39627">
    <ele>883.9300000000001</ele>
   </trkpt>
   <trkpt lat="-33.593208017131126" lon="-70.39523801235866">
    <ele>876.9100000000001</ele>
   </trkpt>
   <trkpt lat="-33.59346602569535" lon="-70.39420601854367">
    <ele>872.44</ele>
   </trkpt>
   <trkpt lat="-33.593724025692595" lon="-70.39317401855514">
    <ele>872.59</ele>
   </trkpt>
   <trkpt lat="-33.5939820171227" lon="-70.39214201239321">
    <ele>875.5600000000001</ele>
   </trkpt>
   <trkpt lat="-33.59424" lon="-70.39111000000001">
    <ele>878.95</ele>
   </trkpt>
   <trkpt lat="-33.5944150012679" lon="-70.39054500119812">
    <ele>879.97</ele>
   </trkpt>
   <trkpt lat="-33.594590000000004" lon="-70.38998000000001">
    <ele>881.5100000000001</ele>
   </trkpt>
   <trkpt lat="-33.594840006878144" lon="-70.38922500656473">
    <ele>880.6700000000001</ele>
   </trkpt>
   <trkpt lat="-33.59509000917095" lon="-70.38847000875279">
    <ele>879.23</ele>
   </trkpt>
   <trkpt lat="-33.59534000687838" lon="-70.38771500656419">
    <ele>881.6600000000001</ele>
   </trkpt>
   <trkpt lat="-33.59559" lon="-70.38696">
    <ele>883.6</ele>
   </trkpt>
   <trkpt lat="-33.59572500147423" lon="-70.38636500070962">
    <ele>883.51</ele>
   </trkpt>
   <trkpt lat="-33.59586" lon="-70.38577000000001">
    <ele>883.0600000000001</ele>
   </trkpt>
   <trkpt lat="-33.59607401179291" lon="-70.3849140084788">
    <ele>882.24</ele>
   </trkpt>
   <trkpt lat="-33.59628801769154" lon="-70.38405801270972">
    <ele>880.38</ele>
   </trkpt>
   <trkpt lat="-33.59650201769583" lon="-70.38320201269278">
    <ele>876.6800000000001</ele>
   </trkpt>
   <trkpt lat="-33.596716011805704" lon="-70.38234600842809">
    <ele>876.23</ele>
   </trkpt>
   <trkpt lat="-33.59693" lon="-70.38149">
    <ele>878.94</ele>
   </trkpt>
   <trkpt lat="-33.59702" lon="-70.38123">
    <ele>878.94</ele>
   </trkpt>
   <trkpt lat="-33.59713" lon="-70.38101">
    <ele>881.1800000000001</ele>
   </trkpt>
   <trkpt lat="-33.59749" lon="-70.38046">
    <ele>882.33</ele>
   </trkpt>
   <trkpt lat="-33.59758" lon="-70.38028">
    <ele>882.58</ele>
   </trkpt>
   <trkpt lat="-33.597785001705745" lon="-70.37962500162054">
    <ele>882.2500000000001</ele>
   </trkpt>
   <trkpt lat="-33.59799" lon="-70.37897000000001">
    <ele>880.7800000000001</ele>
   </trkpt>
   <trkpt lat="-33.59832" lon="-70.378">
    <ele>878.6700000000001</ele>
   </trkpt>
   <trkpt lat="-33.59839" lon="-70.37773">
    <ele>878.69</ele>
   </trkpt>
   <trkpt lat="-33.598465001437496" lon="-70.37713000060599">
    <ele>878.89</ele>
   </trkpt>
   <trkpt lat="-33.59854" lon="-70.37653">
    <ele>879.2800000000001</ele>
   </trkpt>
   <trkpt lat="-33.59857" lon="-70.37608">
    <ele>879.11</ele>
   </trkpt>
   <trkpt lat="-33.59848" lon="-70.3755">
    <ele>879.6700000000001</ele>
   </trkpt>
   <trkpt lat="-33.59824500219325" lon="-70.37475999795417">
    <ele>886.14</ele>
   </trkpt>
   <trkpt lat="-33.59801" lon="-70.37402">
    <ele>891.8900000000001</ele>
   </trkpt>
   <trkpt lat="-33.59796" lon="-70.37379">
    <ele>893.19</ele>
   </trkpt>
   <trkpt lat="-33.59794" lon="-70.37352">
    <ele>894.6100000000001</ele>
   </trkpt>
   <trkpt lat="-33.5979750013578" lon="-70.37294000015734">
    <ele>896.1600000000001</ele>
   </trkpt>
   <trkpt lat="-33.59801" lon="-70.37236">
    <ele>897.1800000000001</ele>
   </trkpt>
   <trkpt lat="-33.59797000710763" lon="-70.37141999911573">
    <ele>898.72</ele>
   </trkpt>
   <trkpt lat="-33.597930007107095" lon="-70.37047999910332">
    <ele>900.73</ele>
   </trkpt>
   <trkpt lat="-33.59789" lon="-70.36954">
    <ele>902.11</ele>
   </trkpt>
   <trkpt lat="-33.59792" lon="-70.36927">
    <ele>902.6200000000001</ele>
   </trkpt>
   <trkpt lat="-33.598020000000005" lon="-70.36888">
    <ele>902.9800000000001</ele>
   </trkpt>
   <trkpt lat="-33.598325002147185" lon="-70.36813500284306">
    <ele>904.4200000000001</ele>
   </trkpt>
   <trkpt lat="-33.59863" lon="-70.36739">
    <ele>906.02</ele>
   </trkpt>
   <trkpt lat="-33.5987" lon="-70.36720000000001">
    <ele>906.02</ele>
   </trkpt>
   <trkpt lat="-33.59874" lon="-70.3669">
    <ele>906.5300000000001</ele>
   </trkpt>
   <trkpt lat="-33.59874" lon="-70.36645">
    <ele>906.95</ele>
   </trkpt>
   <trkpt lat="-33.59868" lon="-70.36606">
    <ele>906.5400000000001</ele>
   </trkpt>
   <trkpt lat="-33.59868" lon="-70.36587">
    <ele>905.6500000000001</ele>
   </trkpt>
   <trkpt lat="-33.5987" lon="-70.36577000000001">
    <ele>905.4000000000001</ele>
   </trkpt>
   <trkpt lat="-33.59886" lon="-70.36551">
    <ele>903.19</ele>
   </trkpt>
   <trkpt lat="-33.59912" lon="-70.36533">
    <ele>900.0300000000001</ele>
   </trkpt>
   <trkpt lat="-33.59984" lon="-70.36512">
    <ele>895.14</ele>
   </trkpt>
   <trkpt lat="-33.60013" lon="-70.36501000000001">
    <ele>894.33</ele>
   </trkpt>
   <trkpt lat="-33.60076" lon="-70.36456000000001">
    <ele>893.47</ele>
   </trkpt>
   <trkpt lat="-33.60139" lon="-70.36399">
    <ele>896.11</ele>
   </trkpt>
   <trkpt lat="-33.60177" lon="-70.36358">
    <ele>900.02</ele>
   </trkpt>
   <trkpt lat="-33.602140001079825" lon="-70.3630900019515">
    <ele>906.9200000000001</ele>
   </trkpt>
   <trkpt lat="-33.60251" lon="-70.3626">
    <ele>912.7</ele>
   </trkpt>
   <trkpt lat="-33.60264" lon="-70.36238">
    <ele>913.78</ele>
   </trkpt>
   <trkpt lat="-33.60297500235859" lon="-70.3616150029618">
    <ele>917.87</ele>
   </trkpt>
   <trkpt lat="-33.60331" lon="-70.36085">
    <ele>922.19</ele>
   </trkpt>
   <trkpt lat="-33.60356" lon="-70.36005">
    <ele>923.09</ele>
   </trkpt>
   <trkpt lat="-33.60376" lon="-70.35955">
    <ele>925.2900000000001</ele>
   </trkpt>
   <trkpt lat="-33.60407000327627" lon="-70.3589133378802">
    <ele>927.2600000000001</ele>
   </trkpt>
   <trkpt lat="-33.604380003291475" lon="-70.35827667118238">
    <ele>930.64</ele>
   </trkpt>
   <trkpt lat="-33.604690000000005" lon="-70.35764">
    <ele>933.45</ele>
   </trkpt>
   <trkpt lat="-33.60498500143066" lon="-70.35707500165249">
    <ele>935.0100000000001</ele>
   </trkpt>
   <trkpt lat="-33.60528" lon="-70.35651">
    <ele>936.34</ele>
   </trkpt>
   <trkpt lat="-33.60562" lon="-70.35593">
    <ele>936.6300000000001</ele>
   </trkpt>
   <trkpt lat="-33.60593" lon="-70.35566">
    <ele>936.47</ele>
   </trkpt>
   <trkpt lat="-33.60646666764898" lon="-70.35531333763916">
    <ele>934.2300000000001</ele>
   </trkpt>
   <trkpt lat="-33.6070033343311" lon="-70.35496667096258">
    <ele>930.85</ele>
   </trkpt>
   <trkpt lat="-33.60754" lon="-70.35462000000001">
    <ele>928.09</ele>
   </trkpt>
   <trkpt lat="-33.60788" lon="-70.35436">
    <ele>926.1800000000001</ele>
   </trkpt>
   <trkpt lat="-33.60808" lon="-70.35418">
    <ele>925.07</ele>
   </trkpt>
   <trkpt lat="-33.60855" lon="-70.3536">
    <ele>925.44</ele>
   </trkpt>
   <trkpt lat="-33.60871" lon="-70.35347">
    <ele>925.9900000000001</ele>
   </trkpt>
   <trkpt lat="-33.60893" lon="-70.35339">
    <ele>926.5000000000001</ele>
   </trkpt>
   <trkpt lat="-33.60956" lon="-70.35338">
    <ele>927.58</ele>
   </trkpt>
   <trkpt lat="-33.61026500017005" lon="-70.35316000180694">
    <ele>929.0100000000001</ele>
   </trkpt>
   <trkpt lat="-33.61097" lon="-70.35294">
    <ele>930.83</ele>
   </trkpt>
   <trkpt lat="-33.611515000090904" lon="-70.35289000030872">
    <ele>931.21</ele>
   </trkpt>
   <trkpt lat="-33.61206" lon="-70.35284">
    <ele>932.03</ele>
   </trkpt>
   <trkpt lat="-33.61242" lon="-70.35284">
    <ele>932.71</ele>
   </trkpt>
   <trkpt lat="-33.61265" lon="-70.35288">
    <ele>933.3800000000001</ele>
   </trkpt>
   <trkpt lat="-33.6128" lon="-70.35293">
    <ele>933.9300000000001</ele>
   </trkpt>
   <trkpt lat="-33.61298" lon="-70.35302">
    <ele>935.08</ele>
   </trkpt>
   <trkpt lat="-33.61359" lon="-70.35342">
    <ele>940.19</ele>
   </trkpt>
   <trkpt lat="-33.61397" lon="-70.35359000000001">
    <ele>942.91</ele>
   </trkpt>
   <trkpt lat="-33.614674999986725" lon="-70.35370999900631">
    <ele>944.47</ele>
   </trkpt>
   <trkpt lat="-33.61538" lon="-70.35383">
    <ele>945.1800000000001</ele>
   </trkpt>
   <trkpt lat="-33.61612" lon="-70.35387">
    <ele>946.09</ele>
   </trkpt>
   <trkpt lat="-33.61688428693432" lon="-70.35409427378139">
    <ele>948.58</ele>
   </trkpt>
   <trkpt lat="-33.61764857346389" lon="-70.35431855154064">
    <ele>953.34</ele>
   </trkpt>
   <trkpt lat="-33.618412859588695" lon="-70.35454283327799">
    <ele>954.74</ele>
   </trkpt>
   <trkpt lat="-33.61917714530871" lon="-70.35476711899358">
    <ele>955.86</ele>
   </trkpt>
   <trkpt lat="-33.61994143062392" lon="-70.35499140868761">
    <ele>956.95</ele>
   </trkpt>
   <trkpt lat="-33.6207057155343" lon="-70.35521570236024">
    <ele>957.01</ele>
   </trkpt>
   <trkpt lat="-33.62147" lon="-70.35544">
    <ele>956.2100000000002</ele>
   </trkpt>
   <trkpt lat="-33.62173" lon="-70.35548">
    <ele>954.9900000000001</ele>
   </trkpt>
   <trkpt lat="-33.62207" lon="-70.35548">
    <ele>953.1800000000001</ele>
   </trkpt>
   <trkpt lat="-33.6227" lon="-70.35534000000001">
    <ele>949.97</ele>
   </trkpt>
   <trkpt lat="-33.62301" lon="-70.3553">
    <ele>948.9000000000001</ele>
   </trkpt>
   <trkpt lat="-33.62326" lon="-70.35535">
    <ele>948.1600000000001</ele>
   </trkpt>
   <trkpt lat="-33.6240266671583" lon="-70.35558666246739">
    <ele>947.3600000000001</ele>
   </trkpt>
   <trkpt lat="-33.62479333386583" lon="-70.3558233291466">
    <ele>949.6600000000001</ele>
   </trkpt>
   <trkpt lat="-33.62556" lon="-70.35606">
    <ele>957.2900000000001</ele>
   </trkpt>
   <trkpt lat="-33.62581" lon="-70.35606">
    <ele>958.7200000000001</ele>
   </trkpt>
   <trkpt lat="-33.62619" lon="-70.35592000000001">
    <ele>961.7200000000001</ele>
   </trkpt>
   <trkpt lat="-33.62635" lon="-70.35588">
    <ele>961.7200000000001</ele>
   </trkpt>
   <trkpt lat="-33.6265" lon="-70.35588">
    <ele>963.0600000000001</ele>
   </trkpt>
   <trkpt lat="-33.626630000000006" lon="-70.35593">
    <ele>963.57</ele>
   </trkpt>
   <trkpt lat="-33.62717" lon="-70.35628000000001">
    <ele>965.9300000000001</ele>
   </trkpt>
   <trkpt lat="-33.62758" lon="-70.35633">
    <ele>964.3800000000001</ele>
   </trkpt>
   <trkpt lat="-33.62787" lon="-70.35639">
    <ele>961.57</ele>
   </trkpt>
   <trkpt lat="-33.6287" lon="-70.35664">
    <ele>953.91</ele>
   </trkpt>
   <trkpt lat="-33.62892" lon="-70.35673">
    <ele>953.5500000000001</ele>
   </trkpt>
   <trkpt lat="-33.62903" lon="-70.35686000000001">
    <ele>953.96</ele>
   </trkpt>
   <trkpt lat="-33.62917" lon="-70.35713000000001">
    <ele>955.8700000000001</ele>
   </trkpt>
   <trkpt lat="-33.62939" lon="-70.35781">
    <ele>962.32</ele>
   </trkpt>
   <trkpt lat="-33.6295" lon="-70.35799">
    <ele>964.2700000000001</ele>
   </trkpt>
   <trkpt lat="-33.62966" lon="-70.35813">
    <ele>965.69</ele>
   </trkpt>
   <trkpt lat="-33.63018500073799" lon="-70.35856999728384">
    <ele>966.8800000000001</ele>
   </trkpt>
   <trkpt lat="-33.63071" lon="-70.35901000000001">
    <ele>966.5300000000001</ele>
   </trkpt>
   <trkpt lat="-33.63132" lon="-70.35938">
    <ele>967.11</ele>
   </trkpt>
   <trkpt lat="-33.63152" lon="-70.35950000000001">
    <ele>968.2600000000001</ele>
   </trkpt>
   <trkpt lat="-33.63174" lon="-70.35956">
    <ele>968.9300000000001</ele>
   </trkpt>
   <trkpt lat="-33.63203" lon="-70.3596">
    <ele>969.34</ele>
   </trkpt>
   <trkpt lat="-33.6323" lon="-70.3596">
    <ele>969.89</ele>
   </trkpt>
   <trkpt lat="-33.633010000000006" lon="-70.35947">
    <ele>971.4800000000001</ele>
   </trkpt>
   <trkpt lat="-33.633595000081925" lon="-70.35938500056966">
    <ele>971.0300000000001</ele>
   </trkpt>
   <trkpt lat="-33.63418" lon="-70.3593">
    <ele>969.3100000000001</ele>
   </trkpt>
   <trkpt lat="-33.6349" lon="-70.35924">
    <ele>970.28</ele>
   </trkpt>
   <trkpt lat="-33.63550333340943" lon="-70.35922666685182">
    <ele>972.45</ele>
   </trkpt>
   <trkpt lat="-33.63610666681743" lon="-70.35921333351685">
    <ele>973.4300000000001</ele>
   </trkpt>
   <trkpt lat="-33.63671" lon="-70.3592">
    <ele>973.8700000000001</ele>
   </trkpt>
   <trkpt lat="-33.63717999989083" lon="-70.35916000022816">
    <ele>972.08</ele>
   </trkpt>
   <trkpt lat="-33.63765" lon="-70.35912">
    <ele>970.22</ele>
   </trkpt>
   <trkpt lat="-33.63794" lon="-70.3592">
    <ele>969.34</ele>
   </trkpt>
   <trkpt lat="-33.63812" lon="-70.35933">
    <ele>968.8500000000001</ele>
   </trkpt>
   <trkpt lat="-33.63846" lon="-70.35964">
    <ele>968.73</ele>
   </trkpt>
   <trkpt lat="-33.63872" lon="-70.35974">
    <ele>968.69</ele>
   </trkpt>
   <trkpt lat="-33.6389" lon="-70.35978">
    <ele>968.6600000000001</ele>
   </trkpt>
   <trkpt lat="-33.63949500005904" lon="-70.35974000027286">
    <ele>968.1200000000001</ele>
   </trkpt>
   <trkpt lat="-33.64009" lon="-70.3597">
    <ele>968.07</ele>
   </trkpt>
   <trkpt lat="-33.640810000034946" lon="-70.35966200127042">
    <ele>968.9000000000001</ele>
   </trkpt>
   <trkpt lat="-33.64153000005826" lon="-70.35962400190536">
    <ele>970.3800000000001</ele>
   </trkpt>
   <trkpt lat="-33.64225000006996" lon="-70.35958600190476">
    <ele>972.6300000000001</ele>
   </trkpt>
   <trkpt lat="-33.64297000007004" lon="-70.35954800126862">
    <ele>972.8800000000001</ele>
   </trkpt>
   <trkpt lat="-33.64369" lon="-70.35951">
    <ele>972.5</ele>
   </trkpt>
   <trkpt lat="-33.64419" lon="-70.35955">
    <ele>972.62</ele>
   </trkpt>
   <trkpt lat="-33.64446" lon="-70.35961">
    <ele>972.86</ele>
   </trkpt>
   <trkpt lat="-33.64505000018002" lon="-70.35984999833414">
    <ele>974.0000000000001</ele>
   </trkpt>
   <trkpt lat="-33.64564" lon="-70.36009">
    <ele>974.49</ele>
   </trkpt>
   <trkpt lat="-33.64584" lon="-70.36014">
    <ele>974.6700000000001</ele>
   </trkpt>
   <trkpt lat="-33.646671428573164" lon="-70.36014714244321">
    <ele>974.98</ele>
   </trkpt>
   <trkpt lat="-33.6475028571459" lon="-70.3601542850244">
    <ele>976.2700000000001</ele>
   </trkpt>
   <trkpt lat="-33.648334285718235" lon="-70.36016142774353">
    <ele>977.28</ele>
   </trkpt>
   <trkpt lat="-33.64916571429016" lon="-70.36016857060068">
    <ele>977.77</ele>
   </trkpt>
   <trkpt lat="-33.649997142861686" lon="-70.3601757135958">
    <ele>978.2</ele>
   </trkpt>
   <trkpt lat="-33.650828571432776" lon="-70.36018285672891">
    <ele>978.5400000000001</ele>
   </trkpt>
   <trkpt lat="-33.65166" lon="-70.36019">
    <ele>977.47</ele>
   </trkpt>
   <trkpt lat="-33.65245999997625" lon="-70.36018666672874">
    <ele>978.34</ele>
   </trkpt>
   <trkpt lat="-33.65325999995242" lon="-70.3601833333955">
    <ele>981.1700000000001</ele>
   </trkpt>
   <trkpt lat="-33.65406" lon="-70.36018">
    <ele>979.6600000000001</ele>
   </trkpt>
   <trkpt lat="-33.65435" lon="-70.3601">
    <ele>977.5100000000001</ele>
   </trkpt>
   <trkpt lat="-33.65453" lon="-70.36">
    <ele>976.3000000000001</ele>
   </trkpt>
   <trkpt lat="-33.654830000000004" lon="-70.35968000000001">
    <ele>976.08</ele>
   </trkpt>
   <trkpt lat="-33.65531" lon="-70.35924">
    <ele>977.25</ele>
   </trkpt>
   <trkpt lat="-33.65549" lon="-70.35915">
    <ele>978.52</ele>
   </trkpt>
   <trkpt lat="-33.65572" lon="-70.35909000000001">
    <ele>980.47</ele>
   </trkpt>
   <trkpt lat="-33.65633666672466" lon="-70.35900666786074">
    <ele>983.7000000000002</ele>
   </trkpt>
   <trkpt lat="-33.6569533333934" lon="-70.35892333452715">
    <ele>986.57</ele>
   </trkpt>
   <trkpt lat="-33.65757" lon="-70.35884">
    <ele>988.4600000000002</ele>
   </trkpt>
   <trkpt lat="-33.65824" lon="-70.35861">
    <ele>989.65</ele>
   </trkpt>
   <trkpt lat="-33.65893500015842" lon="-70.35850000087113">
    <ele>992.3900000000001</ele>
   </trkpt>
   <trkpt lat="-33.65963" lon="-70.35839">
    <ele>995.71</ele>
   </trkpt>
   <trkpt lat="-33.66018000007843" lon="-70.35827500072986">
    <ele>997.3600000000001</ele>
   </trkpt>
   <trkpt lat="-33.66073" lon="-70.35816000000001">
    <ele>994.7900000000001</ele>
   </trkpt>
   <trkpt lat="-33.66115" lon="-70.35812">
    <ele>990.5200000000001</ele>
   </trkpt>
   <trkpt lat="-33.6616" lon="-70.35817">
    <ele>987.28</ele>
   </trkpt>
   <trkpt lat="-33.66187" lon="-70.35817">
    <ele>986.35</ele>
   </trkpt>
   <trkpt lat="-33.66221" lon="-70.35808">
    <ele>985.3600000000001</ele>
   </trkpt>
   <trkpt lat="-33.66239" lon="-70.35795">
    <ele>985.1</ele>
   </trkpt>
   <trkpt lat="-33.66313001159621" lon="-70.35747933835407">
    <ele>985.07</ele>
   </trkpt>
   <trkpt lat="-33.66387002140864" lon="-70.35700866861113">
    <ele>985.8000000000001</ele>
   </trkpt>
   <trkpt lat="-33.66461002943722" lon="-70.35653799077086">
    <ele>986.7900000000001</ele>
   </trkpt>
   <trkpt lat="-33.66535003568187" lon="-70.35606730483288">
    <ele>987.9100000000001</ele>
   </trkpt>
   <trkpt lat="-33.666090040142485" lon="-70.35559661079687">
    <ele>989.59</ele>
   </trkpt>
   <trkpt lat="-33.666830042819015" lon="-70.35512590866246">
    <ele>991.1800000000001</ele>
   </trkpt>
   <trkpt lat="-33.66757004371137" lon="-70.35465519842933">
    <ele>994.1</ele>
   </trkpt>
   <trkpt lat="-33.668310042819456" lon="-70.35418448009712">
    <ele>998.09</ele>
   </trkpt>
   <trkpt lat="-33.669050040143205" lon="-70.35371375366549">
    <ele>1001.3800000000001</ele>
   </trkpt>
   <trkpt lat="-33.669790035682546" lon="-70.35324301913407">
    <ele>1004.11</ele>
   </trkpt>
   <trkpt lat="-33.67053002943738" lon="-70.35277227650253">
    <ele>1005.5200000000002</ele>
   </trkpt>
   <trkpt lat="-33.671270021407636" lon="-70.35230152577054">
    <ele>1007.05</ele>
   </trkpt>
   <trkpt lat="-33.67201001159322" lon="-70.35183076693774">
    <ele>1008.88</ele>
   </trkpt>
   <trkpt lat="-33.67275" lon="-70.35136">
    <ele>1010.13</ele>
   </trkpt>
   <trkpt lat="-33.67286" lon="-70.35127">
    <ele>1010.1800000000001</ele>
   </trkpt>
   <trkpt lat="-33.6732" lon="-70.35079">
    <ele>1008.75</ele>
   </trkpt>
   <trkpt lat="-33.67329" lon="-70.35065">
    <ele>1008.2600000000001</ele>
   </trkpt>
   <trkpt lat="-33.67366000239356" lon="-70.3498700034746">
    <ele>1002.0</ele>
   </trkpt>
   <trkpt lat="-33.67403" lon="-70.34909">
    <ele>996.5</ele>
   </trkpt>
   <trkpt lat="-33.67441" lon="-70.34833">
    <ele>992.84</ele>
   </trkpt>
   <trkpt lat="-33.674580000000006" lon="-70.34816000000001">
    <ele>992.89</ele>
   </trkpt>
   <trkpt lat="-33.67474" lon="-70.34807">
    <ele>992.7300000000001</ele>
   </trkpt>
   <trkpt lat="-33.67541500029842" lon="-70.34779000220507">
    <ele>994.3700000000001</ele>
   </trkpt>
   <trkpt lat="-33.67609" lon="-70.34751">
    <ele>999.23</ele>
   </trkpt>
   <trkpt lat="-33.67671" lon="-70.34715">
    <ele>1003.6200000000001</ele>
   </trkpt>
   <trkpt lat="-33.676930000000006" lon="-70.34706">
    <ele>1004.62</ele>
   </trkpt>
   <trkpt lat="-33.67754" lon="-70.34688">
    <ele>1006.58</ele>
   </trkpt>
   <trkpt lat="-33.67792" lon="-70.34674000000001">
    <ele>1006.6000000000001</ele>
   </trkpt>
   <trkpt lat="-33.678270000000005" lon="-70.34645">
    <ele>1006.78</ele>
   </trkpt>
   <trkpt lat="-33.67871" lon="-70.34616000000001">
    <ele>1006.9000000000001</ele>
   </trkpt>
   <trkpt lat="-33.67943" lon="-70.34555">
    <ele>1007.9200000000001</ele>
   </trkpt>
   <trkpt lat="-33.67985" lon="-70.34523">
    <ele>1008.48</ele>
   </trkpt>
   <trkpt lat="-33.68005" lon="-70.34496">
    <ele>1008.7600000000001</ele>
   </trkpt>
   <trkpt lat="-33.6802" lon="-70.34465">
    <ele>1008.75</ele>
   </trkpt>
   <trkpt lat="-33.68029" lon="-70.34438">
    <ele>1008.6600000000001</ele>
   </trkpt>
   <trkpt lat="-33.68034" lon="-70.34392000000001">
    <ele>1008.2800000000001</ele>
   </trkpt>
   <trkpt lat="-33.68032" lon="-70.34375">
    <ele>1008.2800000000001</ele>
   </trkpt>
   <trkpt lat="-33.68027" lon="-70.34348">
    <ele>1007.71</ele>
   </trkpt>
   <trkpt lat="-33.68012" lon="-70.34309">
    <ele>1006.9200000000001</ele>
   </trkpt>
   <trkpt lat="-33.67998" lon="-70.3429">
    <ele>1006.0100000000001</ele>
   </trkpt>
   <trkpt lat="-33.679750000000006" lon="-70.34266000000001">
    <ele>1003.39</ele>
   </trkpt>
   <trkpt lat="-33.6790000026169" lon="-70.34208999005597">
    <ele>1000.5500000000001</ele>
   </trkpt>
   <trkpt lat="-33.67825000261698" lon="-70.3415199900562">
    <ele>1002.98</ele>
   </trkpt>
   <trkpt lat="-33.6775" lon="-70.34095">
    <ele>1006.5300000000001</ele>
   </trkpt>
   <trkpt lat="-33.677580000000006" lon="-70.34087000000001">
    <ele>1006.5300000000001</ele>
   </trkpt>
   <trkpt lat="-33.677580000000006" lon="-70.34086">
    <ele>1006.5000000000001</ele>
   </trkpt>
   <trkpt lat="-33.6775" lon="-70.34095">
    <ele>1006.99</ele>
   </trkpt>
   <trkpt lat="-33.67825000261661" lon="-70.34151999005591">
    <ele>1001.33</ele>
   </trkpt>
   <trkpt lat="-33.679000002616526" lon="-70.34208999005567">
    <ele>1000.7900000000001</ele>
   </trkpt>
   <trkpt lat="-33.679750000000006" lon="-70.34266000000001">
    <ele>1005.15</ele>
   </trkpt>
   <trkpt lat="-33.67998" lon="-70.3429">
    <ele>1006.9200000000001</ele>
   </trkpt>
   <trkpt lat="-33.68012" lon="-70.34309">
    <ele>1007.5200000000002</ele>
   </trkpt>
   <trkpt lat="-33.68027" lon="-70.34348">
    <ele>1008.2800000000001</ele>
   </trkpt>
   <trkpt lat="-33.68032" lon="-70.34375">
    <ele>1008.51</ele>
   </trkpt>
   <trkpt lat="-33.68034" lon="-70.34392000000001">
    <ele>1008.51</ele>
   </trkpt>
   <trkpt lat="-33.68029" lon="-70.34438">
    <ele>1008.75</ele>
   </trkpt>
   <trkpt lat="-33.6802" lon="-70.34465">
    <ele>1008.7700000000001</ele>
   </trkpt>
   <trkpt lat="-33.68005" lon="-70.34496">
    <ele>1008.6300000000001</ele>
   </trkpt>
   <trkpt lat="-33.67985" lon="-70.34523">
    <ele>1008.48</ele>
   </trkpt>
   <trkpt lat="-33.67943" lon="-70.34555">
    <ele>1007.9200000000001</ele>
   </trkpt>
   <trkpt lat="-33.67871" lon="-70.34616000000001">
    <ele>1006.83</ele>
   </trkpt>
   <trkpt lat="-33.678270000000005" lon="-70.34645">
    <ele>1006.7099999999999</ele>
   </trkpt>
   <trkpt lat="-33.67792" lon="-70.34674000000001">
    <ele>1006.62</ele>
   </trkpt>
   <trkpt lat="-33.67754" lon="-70.34688">
    <ele>1006.2500000000001</ele>
   </trkpt>
   <trkpt lat="-33.676930000000006" lon="-70.34706">
    <ele>1003.6200000000001</ele>
   </trkpt>
   <trkpt lat="-33.67671" lon="-70.34715">
    <ele>1002.2600000000001</ele>
   </trkpt>
   <trkpt lat="-33.67609" lon="-70.34751">
    <ele>998.3100000000001</ele>
   </trkpt>
   <trkpt lat="-33.67541500033298" lon="-70.34779000219072">
    <ele>993.4100000000001</ele>
   </trkpt>
   <trkpt lat="-33.67474" lon="-70.34807">
    <ele>992.89</ele>
   </trkpt>
   <trkpt lat="-33.674580000000006" lon="-70.34816000000001">
    <ele>992.84</ele>
   </trkpt>
   <trkpt lat="-33.67441" lon="-70.34833">
    <ele>993.5800000000002</ele>
   </trkpt>
   <trkpt lat="-33.67403" lon="-70.34909">
    <ele>997.8100000000001</ele>
   </trkpt>
   <trkpt lat="-33.67366000250614" lon="-70.34987000323727">
    <ele>1005.8599999999999</ele>
   </trkpt>
   <trkpt lat="-33.67329" lon="-70.35065">
    <ele>1009.1700000000001</ele>
   </trkpt>
   <trkpt lat="-33.6732" lon="-70.35079">
    <ele>1009.76</ele>
   </trkpt>
   <trkpt lat="-33.67286" lon="-70.35127">
    <ele>1010.13</ele>
   </trkpt>
   <trkpt lat="-33.67275" lon="-70.35136">
    <ele>1009.93</ele>
   </trkpt>
   <trkpt lat="-33.672010011599156" lon="-70.35183076693397">
    <ele>1008.35</ele>
   </trkpt>
   <trkpt lat="-33.671270021413555" lon="-70.35230152576678">
    <ele>1006.8700000000001</ele>
   </trkpt>
   <trkpt lat="-33.67053002944331" lon="-70.35277227649877">
    <ele>1005.29</ele>
   </trkpt>
   <trkpt lat="-33.66979003568848" lon="-70.3532430191303">
    <ele>1003.6700000000001</ele>
   </trkpt>
   <trkpt lat="-33.669050040149145" lon="-70.35371375366171">
    <ele>999.6800000000001</ele>
   </trkpt>
   <trkpt lat="-33.66831004282539" lon="-70.35418448009335">
    <ele>997.1700000000001</ele>
   </trkpt>
   <trkpt lat="-33.667570043717305" lon="-70.35465519842556">
    <ele>993.5400000000001</ele>
   </trkpt>
   <trkpt lat="-33.66683004282495" lon="-70.35512590865869">
    <ele>990.6800000000001</ele>
   </trkpt>
   <trkpt lat="-33.66609004014841" lon="-70.3555966107931">
    <ele>988.8800000000001</ele>
   </trkpt>
   <trkpt lat="-33.665350035687794" lon="-70.35606730482912">
    <ele>987.9100000000001</ele>
   </trkpt>
   <trkpt lat="-33.66461002944315" lon="-70.35653799076708">
    <ele>986.22</ele>
   </trkpt>
   <trkpt lat="-33.663870021414574" lon="-70.35700866860736">
    <ele>985.6</ele>
   </trkpt>
   <trkpt lat="-33.66313001160214" lon="-70.3574793383503">
    <ele>985.07</ele>
   </trkpt>
   <trkpt lat="-33.66239" lon="-70.35795">
    <ele>985.3600000000001</ele>
   </trkpt>
   <trkpt lat="-33.66221" lon="-70.35808">
    <ele>986.01</ele>
   </trkpt>
   <trkpt lat="-33.66187" lon="-70.35817">
    <ele>986.84</ele>
   </trkpt>
   <trkpt lat="-33.6616" lon="-70.35817">
    <ele>988.3600000000001</ele>
   </trkpt>
   <trkpt lat="-33.66115" lon="-70.35812">
    <ele>992.7300000000001</ele>
   </trkpt>
   <trkpt lat="-33.66073" lon="-70.35816000000001">
    <ele>996.3400000000001</ele>
   </trkpt>
   <trkpt lat="-33.66018000002805" lon="-70.35827500074038">
    <ele>997.26</ele>
   </trkpt>
   <trkpt lat="-33.65963" lon="-70.35839">
    <ele>995.2700000000001</ele>
   </trkpt>
   <trkpt lat="-33.658934999939" lon="-70.35850000090586">
    <ele>991.5400000000001</ele>
   </trkpt>
   <trkpt lat="-33.65824" lon="-70.35861">
    <ele>989.34</ele>
   </trkpt>
   <trkpt lat="-33.65757" lon="-70.35884">
    <ele>988.25</ele>
   </trkpt>
   <trkpt lat="-33.65695333338718" lon="-70.35892333452799">
    <ele>985.22</ele>
   </trkpt>
   <trkpt lat="-33.656336666718424" lon="-70.35900666786159">
    <ele>982.0400000000001</ele>
   </trkpt>
   <trkpt lat="-33.65572" lon="-70.35909000000001">
    <ele>978.52</ele>
   </trkpt>
   <trkpt lat="-33.65549" lon="-70.35915">
    <ele>977.25</ele>
   </trkpt>
   <trkpt lat="-33.65531" lon="-70.35924">
    <ele>976.9200000000001</ele>
   </trkpt>
   <trkpt lat="-33.654830000000004" lon="-70.35968000000001">
    <ele>976.0000000000001</ele>
   </trkpt>
   <trkpt lat="-33.65453" lon="-70.36">
    <ele>977.8000000000001</ele>
   </trkpt>
   <trkpt lat="-33.65435" lon="-70.3601">
    <ele>979.0600000000001</ele>
   </trkpt>
   <trkpt lat="-33.65406" lon="-70.36018">
    <ele>980.6500000000001</ele>
   </trkpt>
   <trkpt lat="-33.65326000002393" lon="-70.36018333339521">
    <ele>980.6100000000001</ele>
   </trkpt>
   <trkpt lat="-33.65246000004776" lon="-70.36018666672844">
    <ele>977.77</ele>
   </trkpt>
   <trkpt lat="-33.65166" lon="-70.36019">
    <ele>977.7000000000002</ele>
   </trkpt>
   <trkpt lat="-33.650828571429315" lon="-70.36018285672887">
    <ele>978.5600000000001</ele>
   </trkpt>
   <trkpt lat="-33.649997142858204" lon="-70.36017571359575">
    <ele>978.2</ele>
   </trkpt>
   <trkpt lat="-33.64916571428669" lon="-70.36016857060064">
    <ele>977.46</ele>
   </trkpt>
   <trkpt lat="-33.648334285714746" lon="-70.3601614277435">
    <ele>977.16</ele>
   </trkpt>
   <trkpt lat="-33.64750285714242" lon="-70.36015428502435">
    <ele>975.74</ele>
   </trkpt>
   <trkpt lat="-33.646671428569675" lon="-70.36014714244317">
    <ele>974.89</ele>
   </trkpt>
   <trkpt lat="-33.64584" lon="-70.36014">
    <ele>974.49</ele>
   </trkpt>
   <trkpt lat="-33.64564" lon="-70.36009">
    <ele>974.3000000000001</ele>
   </trkpt>
   <trkpt lat="-33.64505000028366" lon="-70.35984999837629">
    <ele>973.4300000000001</ele>
   </trkpt>
   <trkpt lat="-33.64446" lon="-70.35961">
    <ele>972.62</ele>
   </trkpt>
   <trkpt lat="-33.64419" lon="-70.35955">
    <ele>972.5400000000001</ele>
   </trkpt>
   <trkpt lat="-33.64369" lon="-70.35951">
    <ele>972.52</ele>
   </trkpt>
   <trkpt lat="-33.64297000001155" lon="-70.35954800127172">
    <ele>972.94</ele>
   </trkpt>
   <trkpt lat="-33.64225000001148" lon="-70.35958600190786">
    <ele>972.08</ele>
   </trkpt>
   <trkpt lat="-33.64152999999978" lon="-70.35962400190844">
    <ele>970.3800000000001</ele>
   </trkpt>
   <trkpt lat="-33.640809999976454" lon="-70.35966200127352">
    <ele>968.59</ele>
   </trkpt>
   <trkpt lat="-33.64009" lon="-70.3597">
    <ele>968.11</ele>
   </trkpt>
   <trkpt lat="-33.63949499995383" lon="-70.35974000027993">
    <ele>968.4100000000001</ele>
   </trkpt>
   <trkpt lat="-33.6389" lon="-70.35978">
    <ele>968.69</ele>
   </trkpt>
   <trkpt lat="-33.63872" lon="-70.35974">
    <ele>968.69</ele>
   </trkpt>
   <trkpt lat="-33.63846" lon="-70.35964">
    <ele>968.73</ele>
   </trkpt>
   <trkpt lat="-33.63812" lon="-70.35933">
    <ele>969.34</ele>
   </trkpt>
   <trkpt lat="-33.63794" lon="-70.3592">
    <ele>969.8800000000001</ele>
   </trkpt>
   <trkpt lat="-33.63765" lon="-70.35912">
    <ele>971.0000000000001</ele>
   </trkpt>
   <trkpt lat="-33.63718000012204" lon="-70.35916000020848">
    <ele>973.1700000000001</ele>
   </trkpt>
   <trkpt lat="-33.63671" lon="-70.3592">
    <ele>973.9700000000001</ele>
   </trkpt>
   <trkpt lat="-33.63610666659343" lon="-70.35921333352181">
    <ele>972.96</ele>
   </trkpt>
   <trkpt lat="-33.635503333185426" lon="-70.3592266668568">
    <ele>971.8500000000001</ele>
   </trkpt>
   <trkpt lat="-33.6349" lon="-70.35924">
    <ele>969.8500000000001</ele>
   </trkpt>
   <trkpt lat="-33.63418" lon="-70.3593">
    <ele>969.6600000000001</ele>
   </trkpt>
   <trkpt lat="-33.63359499997622" lon="-70.35938500058504">
    <ele>971.37</ele>
   </trkpt>
   <trkpt lat="-33.633010000000006" lon="-70.35947">
    <ele>971.3600000000001</ele>
   </trkpt>
   <trkpt lat="-33.6323" lon="-70.3596">
    <ele>969.34</ele>
   </trkpt>
   <trkpt lat="-33.63203" lon="-70.3596">
    <ele>968.9300000000001</ele>
   </trkpt>
   <trkpt lat="-33.63174" lon="-70.35956">
    <ele>968.2600000000001</ele>
   </trkpt>
   <trkpt lat="-33.63152" lon="-70.35950000000001">
    <ele>967.11</ele>
   </trkpt>
   <trkpt lat="-33.63132" lon="-70.35938">
    <ele>967.11</ele>
   </trkpt>
   <trkpt lat="-33.63071" lon="-70.35901000000001">
    <ele>966.45</ele>
   </trkpt>
   <trkpt lat="-33.63018500082017" lon="-70.35856999735273">
    <ele>966.85</ele>
   </trkpt>
   <trkpt lat="-33.62966" lon="-70.35813">
    <ele>963.91</ele>
   </trkpt>
   <trkpt lat="-33.6295" lon="-70.35799">
    <ele>962.32</ele>
   </trkpt>
   <trkpt lat="-33.62939" lon="-70.35781">
    <ele>960.3800000000001</ele>
   </trkpt>
   <trkpt lat="-33.62917" lon="-70.35713000000001">
    <ele>954.1800000000001</ele>
   </trkpt>
   <trkpt lat="-33.62903" lon="-70.35686000000001">
    <ele>953.49</ele>
   </trkpt>
   <trkpt lat="-33.62892" lon="-70.35673">
    <ele>953.74</ele>
   </trkpt>
   <trkpt lat="-33.6287" lon="-70.35664">
    <ele>955.01</ele>
   </trkpt>
   <trkpt lat="-33.62787" lon="-70.35639">
    <ele>963.6500000000001</ele>
   </trkpt>
   <trkpt lat="-33.62758" lon="-70.35633">
    <ele>965.47</ele>
   </trkpt>
   <trkpt lat="-33.62717" lon="-70.35628000000001">
    <ele>965.79</ele>
   </trkpt>
   <trkpt lat="-33.626630000000006" lon="-70.35593">
    <ele>963.0600000000001</ele>
   </trkpt>
   <trkpt lat="-33.6265" lon="-70.35588">
    <ele>961.7200000000001</ele>
   </trkpt>
   <trkpt lat="-33.62635" lon="-70.35588">
    <ele>960.7800000000001</ele>
   </trkpt>
   <trkpt lat="-33.62619" lon="-70.35592000000001">
    <ele>959.96</ele>
   </trkpt>
   <trkpt lat="-33.62581" lon="-70.35606">
    <ele>957.2900000000001</ele>
   </trkpt>
   <trkpt lat="-33.62556" lon="-70.35606">
    <ele>954.5300000000001</ele>
   </trkpt>
   <trkpt lat="-33.62479333374323" lon="-70.35582332910876">
    <ele>948.57</ele>
   </trkpt>
   <trkpt lat="-33.624026667035686" lon="-70.35558666242954">
    <ele>947.44</ele>
   </trkpt>
   <trkpt lat="-33.62326" lon="-70.35535">
    <ele>948.9000000000001</ele>
   </trkpt>
   <trkpt lat="-33.62301" lon="-70.3553">
    <ele>949.4500000000002</ele>
   </trkpt>
   <trkpt lat="-33.6227" lon="-70.35534000000001">
    <ele>950.3800000000001</ele>
   </trkpt>
   <trkpt lat="-33.62207" lon="-70.35548">
    <ele>954.5100000000001</ele>
   </trkpt>
   <trkpt lat="-33.62173" lon="-70.35548">
    <ele>955.94</ele>
   </trkpt>
   <trkpt lat="-33.62147" lon="-70.35544">
    <ele>956.62</ele>
   </trkpt>
   <trkpt lat="-33.62070571549446" lon="-70.35521570234856">
    <ele>957.1400000000001</ele>
   </trkpt>
   <trkpt lat="-33.61994143058408" lon="-70.35499140867591">
    <ele>956.2900000000001</ele>
   </trkpt>
   <trkpt lat="-33.61917714526888" lon="-70.35476711898188">
    <ele>955.47</ele>
   </trkpt>
   <trkpt lat="-33.61841285954885" lon="-70.3545428332663">
    <ele>954.37</ele>
   </trkpt>
   <trkpt lat="-33.61764857342404" lon="-70.35431855152896">
    <ele>952.64</ele>
   </trkpt>
   <trkpt lat="-33.616884286894475" lon="-70.35409427376968">
    <ele>947.4100000000001</ele>
   </trkpt>
   <trkpt lat="-33.61612" lon="-70.35387">
    <ele>946.09</ele>
   </trkpt>
   <trkpt lat="-33.61538" lon="-70.35383">
    <ele>945.1800000000001</ele>
   </trkpt>
   <trkpt lat="-33.61467500012915" lon="-70.35370999903057">
    <ele>944.3100000000001</ele>
   </trkpt>
   <trkpt lat="-33.61397" lon="-70.35359000000001">
    <ele>941.5400000000001</ele>
   </trkpt>
   <trkpt lat="-33.61359" lon="-70.35342">
    <ele>937.64</ele>
   </trkpt>
   <trkpt lat="-33.61298" lon="-70.35302">
    <ele>933.9300000000001</ele>
   </trkpt>
   <trkpt lat="-33.6128" lon="-70.35293">
    <ele>932.9300000000001</ele>
   </trkpt>
   <trkpt lat="-33.61265" lon="-70.35288">
    <ele>932.71</ele>
   </trkpt>
   <trkpt lat="-33.61242" lon="-70.35284">
    <ele>932.5200000000001</ele>
   </trkpt>
   <trkpt lat="-33.61206" lon="-70.35284">
    <ele>931.54</ele>
   </trkpt>
   <trkpt lat="-33.61151499992922" lon="-70.35289000032354">
    <ele>930.83</ele>
   </trkpt>
   <trkpt lat="-33.61097" lon="-70.35294">
    <ele>930.2300000000001</ele>
   </trkpt>
   <trkpt lat="-33.61026500021937" lon="-70.35316000179155">
    <ele>929.0100000000001</ele>
   </trkpt>
   <trkpt lat="-33.60956" lon="-70.35338">
    <ele>927.58</ele>
   </trkpt>
   <trkpt lat="-33.60893" lon="-70.35339">
    <ele>925.9900000000001</ele>
   </trkpt>
   <trkpt lat="-33.60871" lon="-70.35347">
    <ele>925.44</ele>
   </trkpt>
   <trkpt lat="-33.60855" lon="-70.3536">
    <ele>925.19</ele>
   </trkpt>
   <trkpt lat="-33.60808" lon="-70.35418">
    <ele>925.63</ele>
   </trkpt>
   <trkpt lat="-33.60788" lon="-70.35436">
    <ele>927.0</ele>
   </trkpt>
   <trkpt lat="-33.60754" lon="-70.35462000000001">
    <ele>928.8100000000001</ele>
   </trkpt>
   <trkpt lat="-33.6070033342848" lon="-70.3549666709925">
    <ele>932.5300000000001</ele>
   </trkpt>
   <trkpt lat="-33.606466667602696" lon="-70.35531333766907">
    <ele>935.42</ele>
   </trkpt>
   <trkpt lat="-33.60593" lon="-70.35566">
    <ele>936.64</ele>
   </trkpt>
   <trkpt lat="-33.60562" lon="-70.35593">
    <ele>936.6300000000001</ele>
   </trkpt>
   <trkpt lat="-33.60528" lon="-70.35651">
    <ele>935.9300000000001</ele>
   </trkpt>
   <trkpt lat="-33.604985001137614" lon="-70.35707500221373">
    <ele>934.57</ele>
   </trkpt>
   <trkpt lat="-33.604690000000005" lon="-70.35764">
    <ele>931.94</ele>
   </trkpt>
   <trkpt lat="-33.60438000324594" lon="-70.35827667127587">
    <ele>929.95</ele>
   </trkpt>
   <trkpt lat="-33.60407000323074" lon="-70.3589133379737">
    <ele>927.2600000000001</ele>
   </trkpt>
   <trkpt lat="-33.60376" lon="-70.35955">
    <ele>925.2900000000001</ele>
   </trkpt>
   <trkpt lat="-33.60356" lon="-70.36005">
    <ele>923.09</ele>
   </trkpt>
   <trkpt lat="-33.60331" lon="-70.36085">
    <ele>919.3500000000001</ele>
   </trkpt>
   <trkpt lat="-33.6029750023496" lon="-70.36161500298236">
    <ele>917.2600000000001</ele>
   </trkpt>
   <trkpt lat="-33.60264" lon="-70.36238">
    <ele>912.7</ele>
   </trkpt>
   <trkpt lat="-33.60251" lon="-70.3626">
    <ele>910.72</ele>
   </trkpt>
   <trkpt lat="-33.602140000851776" lon="-70.36309000225353">
    <ele>905.5300000000001</ele>
   </trkpt>
   <trkpt lat="-33.60177" lon="-70.36358">
    <ele>898.5400000000001</ele>
   </trkpt>
   <trkpt lat="-33.60139" lon="-70.36399">
    <ele>894.8000000000001</ele>
   </trkpt>
   <trkpt lat="-33.60076" lon="-70.36456000000001">
    <ele>893.4300000000001</ele>
   </trkpt>
   <trkpt lat="-33.60013" lon="-70.36501000000001">
    <ele>894.95</ele>
   </trkpt>
   <trkpt lat="-33.59984" lon="-70.36512">
    <ele>896.35</ele>
   </trkpt>
   <trkpt lat="-33.59912" lon="-70.36533">
    <ele>903.19</ele>
   </trkpt>
   <trkpt lat="-33.59886" lon="-70.36551">
    <ele>904.85</ele>
   </trkpt>
   <trkpt lat="-33.5987" lon="-70.36577000000001">
    <ele>906.07</ele>
   </trkpt>
   <trkpt lat="-33.59868" lon="-70.36587">
    <ele>906.5400000000001</ele>
   </trkpt>
   <trkpt lat="-33.59868" lon="-70.36606">
    <ele>906.84</ele>
   </trkpt>
   <trkpt lat="-33.59874" lon="-70.36645">
    <ele>906.7600000000001</ele>
   </trkpt>
   <trkpt lat="-33.59874" lon="-70.3669">
    <ele>906.02</ele>
   </trkpt>
   <trkpt lat="-33.5987" lon="-70.36720000000001">
    <ele>906.02</ele>
   </trkpt>
   <trkpt lat="-33.59863" lon="-70.36739">
    <ele>905.4000000000001</ele>
   </trkpt>
   <trkpt lat="-33.598325002317765" lon="-70.36813500242638">
    <ele>903.97</ele>
   </trkpt>
   <trkpt lat="-33.598020000000005" lon="-70.36888">
    <ele>902.6200000000001</ele>
   </trkpt>
   <trkpt lat="-33.59792" lon="-70.36927">
    <ele>902.11</ele>
   </trkpt>
   <trkpt lat="-33.59789" lon="-70.36954">
    <ele>901.72</ele>
   </trkpt>
   <trkpt lat="-33.59793000710867" lon="-70.37047999914037">
    <ele>900.12</ele>
   </trkpt>
   <trkpt lat="-33.597970007109204" lon="-70.37141999915278">
    <ele>898.72</ele>
   </trkpt>
   <trkpt lat="-33.59801" lon="-70.37236">
    <ele>896.7600000000001</ele>
   </trkpt>
   <trkpt lat="-33.59797500134838" lon="-70.37294000031342">
    <ele>895.5500000000001</ele>
   </trkpt>
   <trkpt lat="-33.59794" lon="-70.37352">
    <ele>893.19</ele>
   </trkpt>
   <trkpt lat="-33.59796" lon="-70.37379">
    <ele>891.8900000000001</ele>
   </trkpt>
   <trkpt lat="-33.59801" lon="-70.37402">
    <ele>889.45</ele>
   </trkpt>
   <trkpt lat="-33.59824500221195" lon="-70.37475999801303">
    <ele>883.0500000000001</ele>
   </trkpt>
   <trkpt lat="-33.59848" lon="-70.3755">
    <ele>879.1300000000001</ele>
   </trkpt>
   <trkpt lat="-33.59857" lon="-70.37608">
    <ele>879.2500000000001</ele>
   </trkpt>
   <trkpt lat="-33.59854" lon="-70.37653">
    <ele>879.21</ele>
   </trkpt>
   <trkpt lat="-33.59846500145856" lon="-70.3771300004376">
    <ele>878.89</ele>
   </trkpt>
   <trkpt lat="-33.59839" lon="-70.37773">
    <ele>878.6700000000001</ele>
   </trkpt>
   <trkpt lat="-33.59832" lon="-70.378">
    <ele>878.72</ele>
   </trkpt>
   <trkpt lat="-33.59799" lon="-70.37897000000001">
    <ele>881.02</ele>
   </trkpt>
   <trkpt lat="-33.59778500174556" lon="-70.37962500149331">
    <ele>882.57</ele>
   </trkpt>
   <trkpt lat="-33.59758" lon="-70.38028">
    <ele>882.1500000000001</ele>
   </trkpt>
   <trkpt lat="-33.59749" lon="-70.38046">
    <ele>881.6600000000001</ele>
   </trkpt>
   <trkpt lat="-33.59713" lon="-70.38101">
    <ele>878.94</ele>
   </trkpt>
   <trkpt lat="-33.59702" lon="-70.38123">
    <ele>878.94</ele>
   </trkpt>
   <trkpt lat="-33.59693" lon="-70.38149">
    <ele>878.2700000000001</ele>
   </trkpt>
   <trkpt lat="-33.596716011784636" lon="-70.3823460085124">
    <ele>876.1200000000001</ele>
   </trkpt>
   <trkpt lat="-33.59650201767476" lon="-70.3832020127771">
    <ele>877.3100000000001</ele>
   </trkpt>
   <trkpt lat="-33.59628801767047" lon="-70.38405801279403">
    <ele>880.38</ele>
   </trkpt>
   <trkpt lat="-33.596074011771826" lon="-70.38491400856311">
    <ele>882.4900000000001</ele>
   </trkpt>
   <trkpt lat="-33.59586" lon="-70.38577000000001">
    <ele>883.0600000000001</ele>
   </trkpt>
   <trkpt lat="-33.59572500137364" lon="-70.38636500115297">
    <ele>883.63</ele>
   </trkpt>
   <trkpt lat="-33.59559" lon="-70.38696">
    <ele>883.2</ele>
   </trkpt>
   <trkpt lat="-33.59534000687804" lon="-70.38771500656523">
    <ele>879.8800000000001</ele>
   </trkpt>
   <trkpt lat="-33.59509000917062" lon="-70.38847000875384">
    <ele>879.59</ele>
   </trkpt>
   <trkpt lat="-33.59484000687779" lon="-70.38922500656577">
    <ele>881.24</ele>
   </trkpt>
   <trkpt lat="-33.594590000000004" lon="-70.38998000000001">
    <ele>880.8100000000001</ele>
   </trkpt>
   <trkpt lat="-33.59441500129999" lon="-70.39054500109452">
    <ele>879.97</ele>
   </trkpt>
   <trkpt lat="-33.59424" lon="-70.39111000000001">
    <ele>878.6700000000001</ele>
   </trkpt>
   <trkpt lat="-33.59398201713718" lon="-70.39214201233527">
    <ele>875.5600000000001</ele>
   </trkpt>
   <trkpt lat="-33.593724025707075" lon="-70.39317401849722">
    <ele>871.87</ele>
   </trkpt>
   <trkpt lat="-33.593466025709844" lon="-70.39420601848573">
    <ele>873.5100000000001</ele>
   </trkpt>
   <trkpt lat="-33.5932080171456" lon="-70.39523801230074">
    <ele>878.32</ele>
   </trkpt>
   <trkpt lat="-33.59295" lon="-70.39627">
    <ele>885.5400000000001</ele>
   </trkpt>
   <trkpt lat="-33.59286" lon="-70.39699">
    <ele>890.4900000000001</ele>
   </trkpt>
   <trkpt lat="-33.59267000272318" lon="-70.39781500187911">
    <ele>891.6800000000001</ele>
   </trkpt>
   <trkpt lat="-33.59248" lon="-70.39864">
    <ele>890.44</ele>
   </trkpt>
   <trkpt lat="-33.5923" lon="-70.39918">
    <ele>888.9200000000001</ele>
   </trkpt>
   <trkpt lat="-33.591993338945144" lon="-70.40001333918815">
    <ele>891.8100000000001</ele>
   </trkpt>
   <trkpt lat="-33.59168667230428" lon="-70.40084667245131">
    <ele>892.4200000000001</ele>
   </trkpt>
   <trkpt lat="-33.59138" lon="-70.40168">
    <ele>887.72</ele>
   </trkpt>
   <trkpt lat="-33.59113500236304" lon="-70.40244500214347">
    <ele>881.3700000000001</ele>
   </trkpt>
   <trkpt lat="-33.59089" lon="-70.40321">
    <ele>874.74</ele>
   </trkpt>
   <trkpt lat="-33.590636670963185" lon="-70.40394000425849">
    <ele>872.69</ele>
   </trkpt>
   <trkpt lat="-33.590383337639864" lon="-70.40467000422957">
    <ele>872.5600000000001</ele>
   </trkpt>
   <trkpt lat="-33.59013" lon="-70.4054">
    <ele>872.69</ele>
   </trkpt>
   <trkpt lat="-33.58973500167161" lon="-70.40605000302149">
    <ele>869.7</ele>
   </trkpt>
   <trkpt lat="-33.58934" lon="-70.4067">
    <ele>865.5600000000001</ele>
   </trkpt>
   <trkpt lat="-33.5891" lon="-70.40719">
    <ele>862.1500000000001</ele>
   </trkpt>
   <trkpt lat="-33.58901" lon="-70.40764">
    <ele>858.1200000000001</ele>
   </trkpt>
   <trkpt lat="-33.588885001705975" lon="-70.40829500105094">
    <ele>853.4100000000001</ele>
   </trkpt>
   <trkpt lat="-33.58876" lon="-70.40895">
    <ele>847.4</ele>
   </trkpt>
   <trkpt lat="-33.58865" lon="-70.4093">
    <ele>845.35</ele>
   </trkpt>
   <trkpt lat="-33.58845" lon="-70.40979">
    <ele>844.47</ele>
   </trkpt>
   <trkpt lat="-33.58811" lon="-70.41015">
    <ele>844.33</ele>
   </trkpt>
   <trkpt lat="-33.587410000000006" lon="-70.41068">
    <ele>848.33</ele>
   </trkpt>
   <trkpt lat="-33.58708" lon="-70.41113">
    <ele>853.1500000000001</ele>
   </trkpt>
   <trkpt lat="-33.58672" lon="-70.41154">
    <ele>856.5600000000001</ele>
   </trkpt>
   <trkpt lat="-33.58641" lon="-70.41203">
    <ele>858.2900000000001</ele>
   </trkpt>
   <trkpt lat="-33.58598" lon="-70.41279">
    <ele>861.53</ele>
   </trkpt>
   <trkpt lat="-33.58581" lon="-70.41315">
    <ele>862.4000000000001</ele>
   </trkpt>
   <trkpt lat="-33.58558" lon="-70.414">
    <ele>861.6</ele>
   </trkpt>
   <trkpt lat="-33.5852800018489" lon="-70.41467000223201">
    <ele>860.4000000000001</ele>
   </trkpt>
   <trkpt lat="-33.58498" lon="-70.41534">
    <ele>858.9300000000001</ele>
   </trkpt>
   <trkpt lat="-33.58482" lon="-70.41561">
    <ele>857.98</ele>
   </trkpt>
   <trkpt lat="-33.58442" lon="-70.41614000000001">
    <ele>855.07</ele>
   </trkpt>
   <trkpt lat="-33.58395667167017" lon="-70.41693000851119">
    <ele>854.5800000000002</ele>
   </trkpt>
   <trkpt lat="-33.583493338320736" lon="-70.41772000853851">
    <ele>856.69</ele>
   </trkpt>
   <trkpt lat="-33.58303" lon="-70.41851000000001">
    <ele>863.3000000000001</ele>
   </trkpt>
   <trkpt lat="-33.58283" lon="-70.41874">
    <ele>863.95</ele>
   </trkpt>
   <trkpt lat="-33.58267" lon="-70.41901">
    <ele>865.83</ele>
   </trkpt>
   <trkpt lat="-33.58254" lon="-70.41933">
    <ele>866.96</ele>
   </trkpt>
   <trkpt lat="-33.58240500157474" lon="-70.4199550009597">
    <ele>867.92</ele>
   </trkpt>
   <trkpt lat="-33.58227" lon="-70.42058">
    <ele>868.0600000000001</ele>
   </trkpt>
   <trkpt lat="-33.58216" lon="-70.42085">
    <ele>867.89</ele>
   </trkpt>
   <trkpt lat="-33.58184" lon="-70.42129">
    <ele>868.48</ele>
   </trkpt>
   <trkpt lat="-33.58175" lon="-70.42156">
    <ele>868.48</ele>
   </trkpt>
   <trkpt lat="-33.58173" lon="-70.42171">
    <ele>868.58</ele>
   </trkpt>
   <trkpt lat="-33.58168803662731" lon="-70.42271600440725">
    <ele>871.6100000000001</ele>
   </trkpt>
   <trkpt lat="-33.581646065115144" lon="-70.42372200783605">
    <ele>874.5400000000001</ele>
   </trkpt>
   <trkpt lat="-33.58160408546352" lon="-70.42472801028619">
    <ele>868.96</ele>
   </trkpt>
   <trkpt lat="-33.58156209767246" lon="-70.42573401175747">
    <ele>865.1800000000001</ele>
   </trkpt>
   <trkpt lat="-33.58152010174199" lon="-70.42674001224972">
    <ele>863.59</ele>
   </trkpt>
   <trkpt lat="-33.58147809767213" lon="-70.42774601176276">
    <ele>862.7600000000001</ele>
   </trkpt>
   <trkpt lat="-33.581436085462904" lon="-70.42875201029639">
    <ele>861.8000000000001</ele>
   </trkpt>
   <trkpt lat="-33.58139406511432" lon="-70.42975800785044">
    <ele>859.7500000000001</ele>
   </trkpt>
   <trkpt lat="-33.58135203662642" lon="-70.4307640044247">
    <ele>855.19</ele>
   </trkpt>
   <trkpt lat="-33.58131" lon="-70.43177">
    <ele>852.6700000000001</ele>
   </trkpt>
   <trkpt lat="-33.58128" lon="-70.432">
    <ele>852.22</ele>
   </trkpt>
   <trkpt lat="-33.58122" lon="-70.43222">
    <ele>851.2400000000001</ele>
   </trkpt>
   <trkpt lat="-33.580966670617514" lon="-70.43292000408205">
    <ele>847.5300000000001</ele>
   </trkpt>
   <trkpt lat="-33.58071333729416" lon="-70.43362000405442">
    <ele>842.52</ele>
   </trkpt>
   <trkpt lat="-33.58046" lon="-70.43432">
    <ele>838.84</ele>
   </trkpt>
   <trkpt lat="-33.58037" lon="-70.43486">
    <ele>836.0000000000001</ele>
   </trkpt>
   <trkpt lat="-33.58034" lon="-70.43566000000001">
    <ele>833.83</ele>
   </trkpt>
   <trkpt lat="-33.58034000117259" lon="-70.43619999999807">
    <ele>831.28</ele>
   </trkpt>
   <trkpt lat="-33.58034" lon="-70.43674">
    <ele>830.6600000000001</ele>
   </trkpt>
   <trkpt lat="-33.58041" lon="-70.4372">
    <ele>831.1</ele>
   </trkpt>
   <trkpt lat="-33.58057" lon="-70.43794000000001">
    <ele>832.37</ele>
   </trkpt>
   <trkpt lat="-33.58068" lon="-70.43839000000001">
    <ele>833.19</ele>
   </trkpt>
   <trkpt lat="-33.58068" lon="-70.43885">
    <ele>833.7500000000001</ele>
   </trkpt>
   <trkpt lat="-33.5806366744397" lon="-70.43983333440259">
    <ele>836.0900000000001</ele>
   </trkpt>
   <trkpt lat="-33.580593341102755" lon="-70.44081666781777">
    <ele>842.19</ele>
   </trkpt>
   <trkpt lat="-33.58055" lon="-70.4418">
    <ele>844.43</ele>
   </trkpt>
   <trkpt lat="-33.58043" lon="-70.44237000000001">
    <ele>844.2400000000001</ele>
   </trkpt>
   <trkpt lat="-33.58041" lon="-70.44283">
    <ele>844.08</ele>
   </trkpt>
   <trkpt lat="-33.5805" lon="-70.44336000000001">
    <ele>843.64</ele>
   </trkpt>
   <trkpt lat="-33.580690000000004" lon="-70.4439">
    <ele>843.2900000000001</ele>
   </trkpt>
   <trkpt lat="-33.581095009221684" lon="-70.44477498764907">
    <ele>842.5</ele>
   </trkpt>
   <trkpt lat="-33.58150001228591" lon="-70.44564998351096">
    <ele>841.8000000000001</ele>
   </trkpt>
   <trkpt lat="-33.581905009192525" lon="-70.44652498758569">
    <ele>842.9200000000001</ele>
   </trkpt>
   <trkpt lat="-33.58231" lon="-70.4474">
    <ele>846.9100000000001</ele>
   </trkpt>
   <trkpt lat="-33.5824" lon="-70.44753">
    <ele>847.2600000000001</ele>
   </trkpt>
   <trkpt lat="-33.58249" lon="-70.44762">
    <ele>848.4</ele>
   </trkpt>
   <trkpt lat="-33.5826" lon="-70.44771">
    <ele>848.4</ele>
   </trkpt>
   <trkpt lat="-33.58299" lon="-70.44785">
    <ele>849.46</ele>
   </trkpt>
   <trkpt lat="-33.58314" lon="-70.44802">
    <ele>849.9100000000001</ele>
   </trkpt>
   <trkpt lat="-33.58325" lon="-70.44817">
    <ele>850.2400000000001</ele>
   </trkpt>
   <trkpt lat="-33.5836033377323" lon="-70.44890999392878">
    <ele>850.5600000000001</ele>
   </trkpt>
   <trkpt lat="-33.58395667106039" lon="-70.44964999391769">
    <ele>850.22</ele>
   </trkpt>
   <trkpt lat="-33.58431" lon="-70.45039">
    <ele>849.0600000000001</ele>
   </trkpt>
   <trkpt lat="-33.58462" lon="-70.4512">
    <ele>847.7800000000001</ele>
   </trkpt>
   <trkpt lat="-33.58475" lon="-70.45147">
    <ele>848.5</ele>
   </trkpt>
   <trkpt lat="-33.58512000161296" lon="-70.45209499739097">
    <ele>852.2400000000001</ele>
   </trkpt>
   <trkpt lat="-33.58549" lon="-70.45272">
    <ele>852.2700000000001</ele>
   </trkpt>
   <trkpt lat="-33.58574" lon="-70.45304">
    <ele>849.9000000000001</ele>
   </trkpt>
   <trkpt lat="-33.58605" lon="-70.45335">
    <ele>846.98</ele>
   </trkpt>
   <trkpt lat="-33.58670666885072" lon="-70.45386999209195">
    <ele>844.96</ele>
   </trkpt>
   <trkpt lat="-33.58736333552657" lon="-70.45438999209912">
    <ele>846.01</ele>
   </trkpt>
   <trkpt lat="-33.58802" lon="-70.45491000000001">
    <ele>843.07</ele>
   </trkpt>
   <trkpt lat="-33.58863666821112" lon="-70.45534999370085">
    <ele>840.6</ele>
   </trkpt>
   <trkpt lat="-33.58925333486506" lon="-70.45578999369168">
    <ele>841.19</ele>
   </trkpt>
   <trkpt lat="-33.589870000000005" lon="-70.45623">
    <ele>843.23</ele>
   </trkpt>
   <trkpt lat="-33.59015" lon="-70.45652000000001">
    <ele>843.38</ele>
   </trkpt>
   <trkpt lat="-33.59053" lon="-70.45697000000001">
    <ele>843.3100000000001</ele>
   </trkpt>
   <trkpt lat="-33.59071" lon="-70.45721">
    <ele>842.55</ele>
   </trkpt>
   <trkpt lat="-33.59089" lon="-70.45761">
    <ele>840.07</ele>
   </trkpt>
   <trkpt lat="-33.59111" lon="-70.45837">
    <ele>835.3600000000001</ele>
   </trkpt>
   <trkpt lat="-33.59122" lon="-70.45854">
    <ele>834.5300000000001</ele>
   </trkpt>
   <trkpt lat="-33.59145" lon="-70.45868">
    <ele>832.9399999999999</ele>
   </trkpt>
   <trkpt lat="-33.5916" lon="-70.45882">
    <ele>832.9399999999999</ele>
   </trkpt>
   <trkpt lat="-33.59167" lon="-70.45899">
    <ele>832.11</ele>
   </trkpt>
   <trkpt lat="-33.5918" lon="-70.45945">
    <ele>830.9300000000001</ele>
   </trkpt>
   <trkpt lat="-33.59192" lon="-70.45975">
    <ele>830.4100000000001</ele>
   </trkpt>
   <trkpt lat="-33.592400002977435" lon="-70.46060499530883">
    <ele>830.5300000000001</ele>
   </trkpt>
   <trkpt lat="-33.59288" lon="-70.46146">
    <ele>831.0400000000001</ele>
   </trkpt>
   <trkpt lat="-33.59295" lon="-70.46177">
    <ele>829.79</ele>
   </trkpt>
   <trkpt lat="-33.59291500148097" lon="-70.46237500009269">
    <ele>825.46</ele>
   </trkpt>
   <trkpt lat="-33.59288" lon="-70.46298">
    <ele>823.3100000000001</ele>
   </trkpt>
   <trkpt lat="-33.59292" lon="-70.46329">
    <ele>823.2600000000001</ele>
   </trkpt>
   <trkpt lat="-33.59313" lon="-70.46361">
    <ele>823.7500000000001</ele>
   </trkpt>
   <trkpt lat="-33.593340000000005" lon="-70.46390000000001">
    <ele>824.3600000000001</ele>
   </trkpt>
   <trkpt lat="-33.59373" lon="-70.46424">
    <ele>826.3800000000001</ele>
   </trkpt>
   <trkpt lat="-33.59416" lon="-70.46454">
    <ele>827.7500000000001</ele>
   </trkpt>
   <trkpt lat="-33.59467" lon="-70.46498000000001">
    <ele>826.62</ele>
   </trkpt>
   <trkpt lat="-33.59536500174859" lon="-70.46562499487264">
    <ele>826.79</ele>
   </trkpt>
   <trkpt lat="-33.59606" lon="-70.46627000000001">
    <ele>829.94</ele>
   </trkpt>
   <trkpt lat="-33.5966" lon="-70.46673000000001">
    <ele>831.1600000000001</ele>
   </trkpt>
   <trkpt lat="-33.59702" lon="-70.46702">
    <ele>830.61</ele>
   </trkpt>
   <trkpt lat="-33.59649500220299" lon="-70.46777000465029">
    <ele>823.19</ele>
   </trkpt>
   <trkpt lat="-33.59597" lon="-70.46852000000001">
    <ele>816.46</ele>
   </trkpt>
   <trkpt lat="-33.59548" lon="-70.46933">
    <ele>805.49</ele>
   </trkpt>
   <trkpt lat="-33.59501" lon="-70.46997">
    <ele>801.7</ele>
   </trkpt>
   <trkpt lat="-33.59485" lon="-70.47014">
    <ele>799.5200000000001</ele>
   </trkpt>
   <trkpt lat="-33.59432000128747" lon="-70.47054333830597">
    <ele>790.72</ele>
   </trkpt>
   <trkpt lat="-33.59379000126632" lon="-70.47094667165534">
    <ele>786.49</ele>
   </trkpt>
   <trkpt lat="-33.59326" lon="-70.47135">
    <ele>781.6800000000001</ele>
   </trkpt>
   <trkpt lat="-33.59317" lon="-70.47148">
    <ele>780.82</ele>
   </trkpt>
   <trkpt lat="-33.5931" lon="-70.47166">
    <ele>780.5200000000001</ele>
   </trkpt>
   <trkpt lat="-33.59306" lon="-70.47184">
    <ele>780.0</ele>
   </trkpt>
   <trkpt lat="-33.59313" lon="-70.47246000000001">
    <ele>777.94</ele>
   </trkpt>
   <trkpt lat="-33.59308" lon="-70.47273000000001">
    <ele>777.58</ele>
   </trkpt>
   <trkpt lat="-33.592870000000005" lon="-70.47297">
    <ele>777.5200000000001</ele>
   </trkpt>
   <trkpt lat="-33.59272" lon="-70.47305">
    <ele>777.4000000000001</ele>
   </trkpt>
   <trkpt lat="-33.591943333252544" lon="-70.4730800005436">
    <ele>777.3800000000001</ele>
   </trkpt>
   <trkpt lat="-33.59116666649784" lon="-70.47311000054701">
    <ele>778.3100000000001</ele>
   </trkpt>
   <trkpt lat="-33.59039" lon="-70.47314">
    <ele>780.82</ele>
   </trkpt>
   <trkpt lat="-33.59004" lon="-70.47318">
    <ele>781.5200000000001</ele>
   </trkpt>
   <trkpt lat="-33.58957" lon="-70.47337">
    <ele>782.5900000000001</ele>
   </trkpt>
   <trkpt lat="-33.58899499988728" lon="-70.473480000764">
    <ele>783.2900000000001</ele>
   </trkpt>
   <trkpt lat="-33.58842" lon="-70.47359">
    <ele>784.7400000000001</ele>
   </trkpt>
   <trkpt lat="-33.58829" lon="-70.47363">
    <ele>784.93</ele>
   </trkpt>
   <trkpt lat="-33.5882" lon="-70.47371000000001">
    <ele>784.99</ele>
   </trkpt>
   <trkpt lat="-33.58782" lon="-70.47413">
    <ele>788.34</ele>
   </trkpt>
   <trkpt lat="-33.58762" lon="-70.47427">
    <ele>789.63</ele>
   </trkpt>
   <trkpt lat="-33.58748" lon="-70.47434000000001">
    <ele>789.2600000000001</ele>
   </trkpt>
   <trkpt lat="-33.587320000000005" lon="-70.47432">
    <ele>788.97</ele>
   </trkpt>
   <trkpt lat="-33.58719" lon="-70.4752">
    <ele>785.1600000000001</ele>
   </trkpt>
   <trkpt lat="-33.58713" lon="-70.47586000000001">
    <ele>786.95</ele>
   </trkpt>
   <trkpt lat="-33.58708" lon="-70.47676">
    <ele>791.07</ele>
   </trkpt>
   <trkpt lat="-33.5871" lon="-70.47762">
    <ele>795.4100000000001</ele>
   </trkpt>
   <trkpt lat="-33.58719" lon="-70.47797">
    <ele>797.46</ele>
   </trkpt>
   <trkpt lat="-33.58748500130703" lon="-70.4785549978624">
    <ele>800.15</ele>
   </trkpt>
   <trkpt lat="-33.58778" lon="-70.47914">
    <ele>805.94</ele>
   </trkpt>
   <trkpt lat="-33.58789" lon="-70.47940000000001">
    <ele>806.51</ele>
   </trkpt>
   <trkpt lat="-33.58801500127809" lon="-70.47996499915551">
    <ele>808.37</ele>
   </trkpt>
   <trkpt lat="-33.58814" lon="-70.48053">
    <ele>809.21</ele>
   </trkpt>
   <trkpt lat="-33.58825" lon="-70.48089">
    <ele>809.33</ele>
   </trkpt>
   <trkpt lat="-33.58834" lon="-70.48105000000001">
    <ele>809.6200000000001</ele>
   </trkpt>
   <trkpt lat="-33.58849" lon="-70.48125">
    <ele>809.98</ele>
   </trkpt>
   <trkpt lat="-33.58894000121394" lon="-70.48180499707449">
    <ele>811.03</ele>
   </trkpt>
   <trkpt lat="-33.58939" lon="-70.48236">
    <ele>810.91</ele>
   </trkpt>
   <trkpt lat="-33.58974500116701" lon="-70.48289999776917">
    <ele>807.95</ele>
   </trkpt>
   <trkpt lat="-33.5901" lon="-70.48344">
    <ele>803.32</ele>
   </trkpt>
   <trkpt lat="-33.59042" lon="-70.48415">
    <ele>799.97</ele>
   </trkpt>
   <trkpt lat="-33.59064" lon="-70.48455">
    <ele>799.6500000000001</ele>
   </trkpt>
   <trkpt lat="-33.59096500060095" lon="-70.48495499840101">
    <ele>799.5300000000001</ele>
   </trkpt>
   <trkpt lat="-33.59129" lon="-70.48536">
    <ele>799.8000000000001</ele>
   </trkpt>
   <trkpt lat="-33.59152" lon="-70.48581">
    <ele>799.9300000000001</ele>
   </trkpt>
   <trkpt lat="-33.591920003175396" lon="-70.48669999585007">
    <ele>799.83</ele>
   </trkpt>
   <trkpt lat="-33.59232" lon="-70.48759000000001">
    <ele>799.72</ele>
   </trkpt>
   <trkpt lat="-33.59268000211914" lon="-70.48830999706348">
    <ele>799.57</ele>
   </trkpt>
   <trkpt lat="-33.59304" lon="-70.48903">
    <ele>799.58</ele>
   </trkpt>
   <trkpt lat="-33.593250000000005" lon="-70.48931">
    <ele>799.3100000000001</ele>
   </trkpt>
   <trkpt lat="-33.59378333513072" lon="-70.48978666074505">
    <ele>798.78</ele>
   </trkpt>
   <trkpt lat="-33.59431666843378" lon="-70.49026332738458">
    <ele>798.3000000000001</ele>
   </trkpt>
   <trkpt lat="-33.59485" lon="-70.49074">
    <ele>797.8100000000001</ele>
   </trkpt>
   <trkpt lat="-33.59521" lon="-70.4911">
    <ele>797.44</ele>
   </trkpt>
   <trkpt lat="-33.595760000000006" lon="-70.49172">
    <ele>797.0400000000001</ele>
   </trkpt>
   <trkpt lat="-33.59601" lon="-70.49209">
    <ele>796.83</ele>
   </trkpt>
   <trkpt lat="-33.59641500171609" lon="-70.49272999710317">
    <ele>796.59</ele>
   </trkpt>
   <trkpt lat="-33.59682" lon="-70.49337">
    <ele>796.44</ele>
   </trkpt>
   <trkpt lat="-33.59713" lon="-70.49406">
    <ele>796.21</ele>
   </trkpt>
   <trkpt lat="-33.59756" lon="-70.49495">
    <ele>795.6</ele>
   </trkpt>
   <trkpt lat="-33.59771" lon="-70.49539">
    <ele>795.1300000000001</ele>
   </trkpt>
   <trkpt lat="-33.59783" lon="-70.49598">
    <ele>794.73</ele>
   </trkpt>
   <trkpt lat="-33.597875001890664" lon="-70.49666499969311">
    <ele>794.64</ele>
   </trkpt>
   <trkpt lat="-33.59792" lon="-70.49735000000001">
    <ele>794.48</ele>
   </trkpt>
   <trkpt lat="-33.59787" lon="-70.49785">
    <ele>794.9100000000001</ele>
   </trkpt>
   <trkpt lat="-33.597770001203806" lon="-70.4984100009717">
    <ele>796.57</ele>
   </trkpt>
   <trkpt lat="-33.59767" lon="-70.49897">
    <ele>797.1400000000001</ele>
   </trkpt>
   <trkpt lat="-33.597620000000006" lon="-70.49949000000001">
    <ele>797.1</ele>
   </trkpt>
   <trkpt lat="-33.59765000140979" lon="-70.50007999998441">
    <ele>796.64</ele>
   </trkpt>
   <trkpt lat="-33.597680000000004" lon="-70.50067">
    <ele>796.19</ele>
   </trkpt>
   <trkpt lat="-33.597701278792634" lon="-70.50168124824641">
    <ele>795.48</ele>
   </trkpt>
   <trkpt lat="-33.597722549358764" lon="-70.50269249699174">
    <ele>794.6200000000001</ele>
   </trkpt>
   <trkpt lat="-33.597743811698386" lon="-70.50370374623579">
    <ele>793.9600000000002</ele>
   </trkpt>
   <trkpt lat="-33.5977650658115" lon="-70.50471499597835">
    <ele>793.2300000000001</ele>
   </trkpt>
   <trkpt lat="-33.59778631169809" lon="-70.50572624621925">
    <ele>792.8900000000001</ele>
   </trkpt>
   <trkpt lat="-33.59780754935812" lon="-70.50673749695828">
    <ele>792.61</ele>
   </trkpt>
   <trkpt lat="-33.59782877879161" lon="-70.50774874819527">
    <ele>791.8600000000001</ele>
   </trkpt>
   <trkpt lat="-33.59785" lon="-70.50876000000001">
    <ele>790.6800000000001</ele>
   </trkpt>
   <trkpt lat="-33.59784000315076" lon="-70.50964500006542">
    <ele>789.72</ele>
   </trkpt>
   <trkpt lat="-33.59783" lon="-70.51053">
    <ele>788.63</ele>
   </trkpt>
   <trkpt lat="-33.59785000140581" lon="-70.51112000003019">
    <ele>787.82</ele>
   </trkpt>
   <trkpt lat="-33.59787" lon="-70.51171000000001">
    <ele>787.24</ele>
   </trkpt>
   <trkpt lat="-33.59794" lon="-70.51259">
    <ele>786.7</ele>
   </trkpt>
   <trkpt lat="-33.597967512989335" lon="-70.51362749902854">
    <ele>785.34</ele>
   </trkpt>
   <trkpt lat="-33.5979950173195" lon="-70.51466499871894">
    <ele>784.6500000000001</ele>
   </trkpt>
   <trkpt lat="-33.59802251299046" lon="-70.51570249907097">
    <ele>783.59</ele>
   </trkpt>
   <trkpt lat="-33.59805" lon="-70.51674000000001">
    <ele>782.8100000000001</ele>
   </trkpt>
   <trkpt lat="-33.598040000000005" lon="-70.51741000000001">
    <ele>782.0</ele>
   </trkpt>
   <trkpt lat="-33.598057509185566" lon="-70.51828249944955">
    <ele>781.3500000000001</ele>
   </trkpt>
   <trkpt lat="-33.59807501224715" lon="-70.5191549992533">
    <ele>780.51</ele>
   </trkpt>
   <trkpt lat="-33.59809250918479" lon="-70.52002749941113">
    <ele>779.34</ele>
   </trkpt>
   <trkpt lat="-33.598110000000005" lon="-70.52090000000001">
    <ele>778.08</ele>
   </trkpt>
   <trkpt lat="-33.59818" lon="-70.5215">
    <ele>777.6700000000001</ele>
   </trkpt>
   <trkpt lat="-33.598203341758015" lon="-70.52252333279397">
    <ele>776.14</ele>
   </trkpt>
   <trkpt lat="-33.598226675091674" lon="-70.52354666614174">
    <ele>774.69</ele>
   </trkpt>
   <trkpt lat="-33.59825" lon="-70.52457000000001">
    <ele>773.96</ele>
   </trkpt>
   <trkpt lat="-33.59832" lon="-70.52538000000001">
    <ele>772.96</ele>
   </trkpt>
   <trkpt lat="-33.598440000000004" lon="-70.52607">
    <ele>772.6</ele>
   </trkpt>
  </trkseg>
 </trk>
</gpx>
